{"type":"FeatureCollection","features":[{"type":"Feature","id":1,"geometry":{"type":"Point","coordinates":[-116.55395781134611,43.569219202586474]},"properties":{"OBJECTID_1":1,"OBJECTID":1003,"UNIQID":"PKPT640","OWNER":"Nampa","MANAGER":"Nampa","STATUS":"Active","FTR_FUNCTN":"Amenity","FTR_TYP":"Basketball Court","LOCATION":"East Side Park","LOCTNTYP":"Park","FTRNAME":"East Side Basketball Court","FTRLBL":" "}},{"type":"Feature","id":2,"geometry":{"type":"Point","coordinates":[-116.55452173157821,43.568847334429712]},"properties":{"OBJECTID_1":2,"OBJECTID":1004,"UNIQID":"PKPT641","OWNER":"Nampa","MANAGER":"Nampa","STATUS":"Active","FTR_FUNCTN":"Amenity","FTR_TYP":"Playground","LOCATION":"East Side Park","LOCTNTYP":"Park","FTRNAME":"East Side Playground","FTRLBL":" "}},{"type":"Feature","id":3,"geometry":{"type":"Point","coordinates":[-116.54648736946476,43.584487153181946]},"properties":{"OBJECTID_1":3,"OBJECTID":1005,"UNIQID":"PKPT642","OWNER":"Nampa","MANAGER":"Nampa","STATUS":"Active","FTR_FUNCTN":"Amenity","FTR_TYP":"Playground","LOCATION":"Lakeview Park","LOCTNTYP":"Park","FTRNAME":"Lakeview Fireplace Playground","FTRLBL":" "}},{"type":"Feature","id":4,"geometry":{"type":"Point","coordinates":[-116.54359208606212,43.584445508307219]},"properties":{"OBJECTID_1":4,"OBJECTID":1007,"UNIQID":"PKPT644","OWNER":"Nampa","MANAGER":"Nampa","STATUS":"Active","FTR_FUNCTN":"Amenity","FTR_TYP":"Sheltered Picnic Area","LOCATION":"Maple Grove Park","LOCTNTYP":"Park","FTRNAME":"Lakeview Maple Grove Shelter","FTRLBL":"Lakeview Maple Grove Shelter"}},{"type":"Feature","id":5,"geometry":{"type":"Point","coordinates":[-116.54551348930048,43.590444354034702]},"properties":{"OBJECTID_1":5,"OBJECTID":1008,"UNIQID":"PKPT645","OWNER":"Nampa","MANAGER":"Nampa","STATUS":"Active","FTR_FUNCTN":"Amenity","FTR_TYP":"Playground","LOCATION":"Stampede Park","LOCTNTYP":"Park","FTRNAME":"Stampede Playground","FTRLBL":" "}},{"type":"Feature","id":6,"geometry":{"type":"Point","coordinates":[-116.558866668555,43.585263141971076]},"properties":{"OBJECTID_1":6,"OBJECTID":1009,"UNIQID":"PKPT646","OWNER":"Nampa","MANAGER":"Nampa","STATUS":"Active","FTR_FUNCTN":"Amenity","FTR_TYP":"Playground","LOCATION":"Hunter Park","LOCTNTYP":"Park","FTRNAME":"Hunter Playground - Main","FTRLBL":" "}},{"type":"Feature","id":7,"geometry":{"type":"Point","coordinates":[-116.56693294882547,43.591425131891491]},"properties":{"OBJECTID_1":7,"OBJECTID":1010,"UNIQID":"PKPT647","OWNER":"Nampa","MANAGER":"Nampa","STATUS":"Active","FTR_FUNCTN":"Amenity","FTR_TYP":"Basketball Court","LOCATION":"City Acres Park","LOCTNTYP":"Park","FTRNAME":"City Acres Basketball Court","FTRLBL":" "}},{"type":"Feature","id":8,"geometry":{"type":"Point","coordinates":[-116.56673263478432,43.591280928842245]},"properties":{"OBJECTID_1":8,"OBJECTID":1011,"UNIQID":"PKPT648","OWNER":"Nampa","MANAGER":"Nampa","STATUS":"Active","FTR_FUNCTN":"Amenity","FTR_TYP":"Playground","LOCATION":"City Acres Park","LOCTNTYP":"Park","FTRNAME":"City Acres Playground","FTRLBL":" "}},{"type":"Feature","id":9,"geometry":{"type":"Point","coordinates":[-116.58364184860501,43.588345192606774]},"properties":{"OBJECTID_1":9,"OBJECTID":1012,"UNIQID":"PKPT649","OWNER":"Nampa","MANAGER":"Nampa","STATUS":"Active","FTR_FUNCTN":"Amenity","FTR_TYP":"Basketball Court","LOCATION":"Lions Park","LOCTNTYP":"Park","FTRNAME":"Lions North Basketball Court","FTRLBL":" "}},{"type":"Feature","id":10,"geometry":{"type":"Point","coordinates":[-116.58385560413375,43.588763676798365]},"properties":{"OBJECTID_1":10,"OBJECTID":1013,"UNIQID":"PKPT650","OWNER":"Nampa","MANAGER":"Nampa","STATUS":"Active","FTR_FUNCTN":"Amenity","FTR_TYP":"Sheltered Picnic Area","LOCATION":"Lions Park","LOCTNTYP":"Park","FTRNAME":"Lions Playground Shelter","FTRLBL":"Lions Playground Shelter"}},{"type":"Feature","id":11,"geometry":{"type":"Point","coordinates":[-116.56578445648741,43.553859220352322]},"properties":{"OBJECTID_1":11,"OBJECTID":1014,"UNIQID":"PKPT651","OWNER":"Nampa","MANAGER":"Nampa","STATUS":"Active","FTR_FUNCTN":"Amenity","FTR_TYP":"Soccer Field","LOCATION":"Liberty Park","LOCTNTYP":"Park","FTRNAME":"Liberty Soccer Field","FTRLBL":" "}},{"type":"Feature","id":12,"geometry":{"type":"Point","coordinates":[-116.56495054284252,43.553845221217621]},"properties":{"OBJECTID_1":12,"OBJECTID":1015,"UNIQID":"PKPT652","OWNER":"Nampa","MANAGER":"Nampa","STATUS":"Active","FTR_FUNCTN":"Amenity","FTR_TYP":"Soccer Field","LOCATION":"Liberty Park","LOCTNTYP":"Park","FTRNAME":"Liberty Soccer Field","FTRLBL":" "}},{"type":"Feature","id":13,"geometry":{"type":"Point","coordinates":[-116.56509599212957,43.552428010731568]},"properties":{"OBJECTID_1":13,"OBJECTID":1016,"UNIQID":"PKPT653","OWNER":"Nampa","MANAGER":"Nampa","STATUS":"Active","FTR_FUNCTN":"Amenity","FTR_TYP":"Soccer Field","LOCATION":"Liberty Park","LOCTNTYP":"Park","FTRNAME":"Liberty Soccer Field","FTRLBL":" "}},{"type":"Feature","id":14,"geometry":{"type":"Point","coordinates":[-116.56414508599811,43.553093007611515]},"properties":{"OBJECTID_1":14,"OBJECTID":1017,"UNIQID":"PKPT654","OWNER":"Nampa","MANAGER":"Nampa","STATUS":"Active","FTR_FUNCTN":"Amenity","FTR_TYP":"Soccer Field","LOCATION":"Liberty Park","LOCTNTYP":"Park","FTRNAME":"Liberty Soccer Field","FTRLBL":" "}},{"type":"Feature","id":15,"geometry":{"type":"Point","coordinates":[-116.56448297286505,43.552931031815021]},"properties":{"OBJECTID_1":15,"OBJECTID":1018,"UNIQID":"PKPT655","OWNER":"Nampa","MANAGER":"Nampa","STATUS":"Active","FTR_FUNCTN":"Amenity","FTR_TYP":"Soccer Field","LOCATION":"Liberty Park","LOCTNTYP":"Park","FTRNAME":"Liberty Soccer Field","FTRLBL":" "}},{"type":"Feature","id":16,"geometry":{"type":"Point","coordinates":[-116.56406718340207,43.552602887942626]},"properties":{"OBJECTID_1":16,"OBJECTID":1019,"UNIQID":"PKPT656","OWNER":"Nampa","MANAGER":"Nampa","STATUS":"Active","FTR_FUNCTN":"Amenity","FTR_TYP":"Soccer Field","LOCATION":"Liberty Park","LOCTNTYP":"Park","FTRNAME":"Liberty Soccer Field","FTRLBL":" "}},{"type":"Feature","id":17,"geometry":{"type":"Point","coordinates":[-116.5638066712027,43.552808192466145]},"properties":{"OBJECTID_1":17,"OBJECTID":1020,"UNIQID":"PKPT657","OWNER":"Nampa","MANAGER":"Nampa","STATUS":"Active","FTR_FUNCTN":"Amenity","FTR_TYP":"Soccer Field","LOCATION":"Liberty Park","LOCTNTYP":"Park","FTRNAME":"Liberty Soccer Field","FTRLBL":" "}},{"type":"Feature","id":18,"geometry":{"type":"Point","coordinates":[-116.56656840825873,43.553422787313806]},"properties":{"OBJECTID_1":18,"OBJECTID":1021,"UNIQID":"PKPT658","OWNER":"Nampa","MANAGER":"Nampa","STATUS":"Active","FTR_FUNCTN":"Amenity","FTR_TYP":"Soccer Field","LOCATION":"Liberty Park","LOCTNTYP":"Park","FTRNAME":"Liberty Soccer Field","FTRLBL":" "}},{"type":"Feature","id":19,"geometry":{"type":"Point","coordinates":[-116.56609109814475,43.553414227540834]},"properties":{"OBJECTID_1":19,"OBJECTID":1022,"UNIQID":"PKPT659","OWNER":"Nampa","MANAGER":"Nampa","STATUS":"Active","FTR_FUNCTN":"Amenity","FTR_TYP":"Soccer Field","LOCATION":"Liberty Park","LOCTNTYP":"Park","FTRNAME":"Liberty Soccer Field","FTRLBL":" "}},{"type":"Feature","id":20,"geometry":{"type":"Point","coordinates":[-116.56610941024083,43.553108861820974]},"properties":{"OBJECTID_1":20,"OBJECTID":1023,"UNIQID":"PKPT660","OWNER":"Nampa","MANAGER":"Nampa","STATUS":"Active","FTR_FUNCTN":"Amenity","FTR_TYP":"Soccer Field","LOCATION":"Liberty Park","LOCTNTYP":"Park","FTRNAME":"Liberty Soccer Field","FTRLBL":" "}},{"type":"Feature","id":21,"geometry":{"type":"Point","coordinates":[-116.56514556478932,43.552850514200408]},"properties":{"OBJECTID_1":21,"OBJECTID":1024,"UNIQID":"PKPT661","OWNER":"Nampa","MANAGER":"Nampa","STATUS":"Active","FTR_FUNCTN":"Amenity","FTR_TYP":"Playground","LOCATION":"Liberty Park","LOCTNTYP":"Park","FTRNAME":"Liberty Playground","FTRLBL":" "}},{"type":"Feature","id":22,"geometry":{"type":"Point","coordinates":[-116.52908153074057,43.614812215273943]},"properties":{"OBJECTID_1":22,"OBJECTID":1025,"UNIQID":"PKPT662","OWNER":"Nampa","MANAGER":"Nampa","STATUS":"Active","FTR_FUNCTN":"Amenity","FTR_TYP":"Playground","LOCATION":"Optimist Park","LOCTNTYP":"Park","FTRNAME":"Optimist Playground","FTRLBL":" "}},{"type":"Feature","id":23,"geometry":{"type":"Point","coordinates":[-116.6048100753399,43.567965079090797]},"properties":{"OBJECTID_1":23,"OBJECTID":1026,"UNIQID":"PKPT663","OWNER":"Nampa","MANAGER":"Nampa","STATUS":"Active","FTR_FUNCTN":"Amenity","FTR_TYP":"Playground","LOCATION":"West Roosevelt Park","LOCTNTYP":"Park","FTRNAME":"W. Roosevelt Playground","FTRLBL":" "}},{"type":"Feature","id":24,"geometry":{"type":"Point","coordinates":[-116.60196452274164,43.553706009308918]},"properties":{"OBJECTID_1":24,"OBJECTID":1027,"UNIQID":"PKPT664","OWNER":"Nampa","MANAGER":"Nampa","STATUS":"Active","FTR_FUNCTN":"Amenity","FTR_TYP":"Playground","LOCATION":"South Fork Park","LOCTNTYP":"Park","FTRNAME":"South Fork Playground","FTRLBL":" "}},{"type":"Feature","id":25,"geometry":{"type":"Point","coordinates":[-116.55937921767176,43.545080903071572]},"properties":{"OBJECTID_1":25,"OBJECTID":1028,"UNIQID":"PKPT665","OWNER":"Nampa","MANAGER":"Nampa","STATUS":"Active","FTR_FUNCTN":"Amenity","FTR_TYP":"Playground","LOCATION":"Skyview Park","LOCTNTYP":"Park","FTRNAME":"Skyview Playground","FTRLBL":" "}},{"type":"Feature","id":26,"geometry":{"type":"Point","coordinates":[-116.56683212789618,43.543063436176354]},"properties":{"OBJECTID_1":26,"OBJECTID":1029,"UNIQID":"PKPT666","OWNER":"Nampa","MANAGER":"Nampa","STATUS":"Active","FTR_FUNCTN":"Amenity","FTR_TYP":"Playground","LOCATION":"Wilson Creek Park","LOCTNTYP":"Park","FTRNAME":"Wilson Creek Playground","FTRLBL":" "}},{"type":"Feature","id":27,"geometry":{"type":"Point","coordinates":[-116.54143431953271,43.545975525159882]},"properties":{"OBJECTID_1":27,"OBJECTID":1030,"UNIQID":"PKPT667","OWNER":"Private","MANAGER":"Nampa","STATUS":"Active","FTR_FUNCTN":"Amenity","FTR_TYP":"Playground","LOCATION":"Maplewood Park","LOCTNTYP":"Park","FTRNAME":"Maplewood Playground","FTRLBL":" "}},{"type":"Feature","id":28,"geometry":{"type":"Point","coordinates":[-116.54281561762971,43.608052270706139]},"properties":{"OBJECTID_1":28,"OBJECTID":1031,"UNIQID":"PKPT668","OWNER":"Nampa","MANAGER":"Nampa","STATUS":"Temporary","FTR_FUNCTN":"Amenity","FTR_TYP":"Soccer Field","LOCATION":"McDonagh Park","LOCTNTYP":"Park","FTRNAME":"McDonagh Soccer Field","FTRLBL":" "}},{"type":"Feature","id":29,"geometry":{"type":"Point","coordinates":[-116.54319247292101,43.60753072587746]},"properties":{"OBJECTID_1":29,"OBJECTID":1032,"UNIQID":"PKPT669","OWNER":"Nampa","MANAGER":"Nampa","STATUS":"Temporary","FTR_FUNCTN":"Amenity","FTR_TYP":"Soccer Field","LOCATION":"McDonagh Park","LOCTNTYP":"Park","FTRNAME":"McDonagh Soccer Field","FTRLBL":" "}},{"type":"Feature","id":30,"geometry":{"type":"Point","coordinates":[-116.54310903937832,43.606691099194833]},"properties":{"OBJECTID_1":30,"OBJECTID":1033,"UNIQID":"PKPT670","OWNER":"Nampa","MANAGER":"Nampa","STATUS":"Temporary","FTR_FUNCTN":"Amenity","FTR_TYP":"Soccer Field","LOCATION":"McDonagh Park","LOCTNTYP":"Park","FTRNAME":"McDonagh Soccer Field","FTRLBL":" "}},{"type":"Feature","id":31,"geometry":{"type":"Point","coordinates":[-116.54349375157601,43.606377862239377]},"properties":{"OBJECTID_1":31,"OBJECTID":1034,"UNIQID":"PKPT671","OWNER":"Nampa","MANAGER":"Nampa","STATUS":"Temporary","FTR_FUNCTN":"Amenity","FTR_TYP":"Soccer Field","LOCATION":"McDonagh Park","LOCTNTYP":"Park","FTRNAME":"McDonagh Soccer Field","FTRLBL":" "}},{"type":"Feature","id":32,"geometry":{"type":"Point","coordinates":[-116.55339313824,43.581112231765097]},"properties":{"OBJECTID_1":32,"OBJECTID":1035,"UNIQID":"PKPT672","OWNER":"Nampa","MANAGER":"Nampa","STATUS":"Active","FTR_FUNCTN":"Amenity","FTR_TYP":"Playground","LOCATION":"Starr Park","LOCTNTYP":"Park","FTRNAME":"Starr Playground","FTRLBL":" "}},{"type":"Feature","id":33,"geometry":{"type":"Point","coordinates":[-116.54940556730884,43.584231924425183]},"properties":{"OBJECTID_1":33,"OBJECTID":1036,"UNIQID":"PKPT673","OWNER":"Nampa","MANAGER":"Nampa","STATUS":"Active","FTR_FUNCTN":"Amenity","FTR_TYP":"Baseball Field","LOCATION":"Lakeview Park","LOCTNTYP":"Park","FTRNAME":"Les Goodman Baseball Field","FTRLBL":" "}},{"type":"Feature","id":34,"geometry":{"type":"Point","coordinates":[-116.55988514685178,43.545706168822342]},"properties":{"OBJECTID_1":34,"OBJECTID":1037,"UNIQID":"PKPT674","OWNER":"Nampa","MANAGER":"Nampa","STATUS":"Active","FTR_FUNCTN":"Amenity","FTR_TYP":"Soccer Field","LOCATION":"Skyview Park","LOCTNTYP":"Park","FTRNAME":"Skyview Soccer Field","FTRLBL":" "}},{"type":"Feature","id":35,"geometry":{"type":"Point","coordinates":[-116.56473754280262,43.553191749592308]},"properties":{"OBJECTID_1":35,"OBJECTID":1038,"UNIQID":"PKPT675","OWNER":"Nampa","MANAGER":"Nampa","STATUS":"Active","FTR_FUNCTN":"Amenity","FTR_TYP":"Sand Volleyball","LOCATION":"Liberty Park","LOCTNTYP":"Park","FTRNAME":"Liberty Sand Volleyball","FTRLBL":" "}},{"type":"Feature","id":36,"geometry":{"type":"Point","coordinates":[-116.56551915615583,43.553220464035661]},"properties":{"OBJECTID_1":36,"OBJECTID":1039,"UNIQID":"PKPT676","OWNER":"Nampa","MANAGER":"Nampa","STATUS":"Active","FTR_FUNCTN":"Amenity","FTR_TYP":"Sheltered Picnic Area","LOCATION":"Liberty Park","LOCTNTYP":"Park","FTRNAME":"Liberty Shelter","FTRLBL":"Liberty Shelter"}},{"type":"Feature","id":37,"geometry":{"type":"Point","coordinates":[-116.58597819984213,43.574541357925973]},"properties":{"OBJECTID_1":37,"OBJECTID":1040,"UNIQID":"PKPT677","OWNER":"Nampa","MANAGER":"Nampa","STATUS":"Active","FTR_FUNCTN":"Amenity","FTR_TYP":"Restrooms","LOCATION":"West Park","LOCTNTYP":"Park","FTRNAME":"West Park Reservation Restrooms","FTRLBL":" "}},{"type":"Feature","id":38,"geometry":{"type":"Point","coordinates":[-116.54609123198102,43.59036845925106]},"properties":{"OBJECTID_1":38,"OBJECTID":1041,"UNIQID":"PKPT1305","OWNER":"Nampa","MANAGER":"Nampa","STATUS":"Active","FTR_FUNCTN":"Amenity","FTR_TYP":"Skate Park","LOCATION":"Stampede Park","LOCTNTYP":"Park","FTRNAME":"Stampede Skate Park","FTRLBL":" "}},{"type":"Feature","id":39,"geometry":{"type":"Point","coordinates":[-116.54509910657235,43.590285323034465]},"properties":{"OBJECTID_1":39,"OBJECTID":1042,"UNIQID":"PKPT678","OWNER":"Nampa","MANAGER":"Nampa","STATUS":"Active","FTR_FUNCTN":"Amenity","FTR_TYP":"Restrooms","LOCATION":"Stampede Park","LOCTNTYP":"Park","FTRNAME":"Stampede Park Restrooms","FTRLBL":" "}},{"type":"Feature","id":40,"geometry":{"type":"Point","coordinates":[-116.54378716750138,43.58478008928558]},"properties":{"OBJECTID_1":40,"OBJECTID":1043,"UNIQID":"PKPT679","OWNER":"Nampa","MANAGER":"Nampa","STATUS":"Active","FTR_FUNCTN":"Amenity","FTR_TYP":"Restrooms","LOCATION":"Maple Grove Park","LOCTNTYP":"Park","FTRNAME":"Maple Grove Restrooms","FTRLBL":" "}},{"type":"Feature","id":41,"geometry":{"type":"Point","coordinates":[-116.54386766848899,43.585486976097982]},"properties":{"OBJECTID_1":41,"OBJECTID":1044,"UNIQID":"PKPT680","OWNER":"Nampa","MANAGER":"Nampa","STATUS":"Active","FTR_FUNCTN":"Amenity","FTR_TYP":"Sand Volleyball","LOCATION":"Maple Grove Park","LOCTNTYP":"Park","FTRNAME":"Maple Grove Sand Volleyball","FTRLBL":" "}},{"type":"Feature","id":42,"geometry":{"type":"Point","coordinates":[-116.54905753663725,43.584838274296324]},"properties":{"OBJECTID_1":42,"OBJECTID":1045,"UNIQID":"PKPT681","OWNER":"Nampa","MANAGER":"Nampa","STATUS":"Active","FTR_FUNCTN":"Amenity","FTR_TYP":"Playground","LOCATION":"Lakeview Park","LOCTNTYP":"Park","FTRNAME":"Lakeview Pool Playground","FTRLBL":" "}},{"type":"Feature","id":43,"geometry":{"type":"Point","coordinates":[-116.54869820827047,43.584590591048496]},"properties":{"OBJECTID_1":43,"OBJECTID":1046,"UNIQID":"PKPT682","OWNER":"Nampa","MANAGER":"Nampa","STATUS":"Active","FTR_FUNCTN":"Amenity","FTR_TYP":"Restrooms","LOCATION":"Lakeview Park","LOCTNTYP":"Park","FTRNAME":"Lakeview Amphitheater Restrooms","FTRLBL":" "}},{"type":"Feature","id":44,"geometry":{"type":"Point","coordinates":[-116.58667204482136,43.585352652950881]},"properties":{"OBJECTID_1":44,"OBJECTID":1047,"UNIQID":"PKPT683","OWNER":"Nampa","MANAGER":"Nampa","STATUS":"Active","FTR_FUNCTN":"Amenity","FTR_TYP":"Tennis Courts","LOCATION":"Lions Park","LOCTNTYP":"Park","FTRNAME":"Lions Tennis Courts","FTRLBL":" "}},{"type":"Feature","id":45,"geometry":{"type":"Point","coordinates":[-116.58756369700585,43.585456683516497]},"properties":{"OBJECTID_1":45,"OBJECTID":1048,"UNIQID":"PKPT684","OWNER":"Nampa","MANAGER":"Nampa","STATUS":"Active","FTR_FUNCTN":"Amenity","FTR_TYP":"Restrooms","LOCATION":"Lions Park","LOCTNTYP":"Park","FTRNAME":"Lions Pool Restrooms","FTRLBL":" "}},{"type":"Feature","id":46,"geometry":{"type":"Point","coordinates":[-116.58665154156051,43.586133227591915]},"properties":{"OBJECTID_1":46,"OBJECTID":1049,"UNIQID":"PKPT685","OWNER":"Nampa","MANAGER":"Nampa","STATUS":"Active","FTR_FUNCTN":"Amenity","FTR_TYP":"Sheltered Picnic Area","LOCATION":"Lions Park","LOCTNTYP":"Park","FTRNAME":"Lions by the Pool Shelter","FTRLBL":"Lions by the Pool Shelter"}},{"type":"Feature","id":47,"geometry":{"type":"Point","coordinates":[-116.52948001090984,43.614777805162305]},"properties":{"OBJECTID_1":47,"OBJECTID":1051,"UNIQID":"PKPT686","OWNER":"Nampa","MANAGER":"Nampa","STATUS":"Active","FTR_FUNCTN":"Amenity","FTR_TYP":"Restrooms","LOCATION":"Optimist Park","LOCTNTYP":"Park","FTRNAME":"Optimist Park Restrooms","FTRLBL":" "}},{"type":"Feature","id":48,"geometry":{"type":"Point","coordinates":[-116.52933126129695,43.614988926069948]},"properties":{"OBJECTID_1":48,"OBJECTID":1052,"UNIQID":"PKPT687","OWNER":"Nampa","MANAGER":"Nampa","STATUS":"Active","FTR_FUNCTN":"Amenity","FTR_TYP":"Sheltered Picnic Area","LOCATION":"Optimist Park","LOCTNTYP":"Park","FTRNAME":"Optimist Area 1 Shelter","FTRLBL":"Optimist Area 1 Shelter"}},{"type":"Feature","id":49,"geometry":{"type":"Point","coordinates":[-116.5285768670921,43.614153640530006]},"properties":{"OBJECTID_1":49,"OBJECTID":1053,"UNIQID":"PKPT688","OWNER":"Nampa","MANAGER":"Nampa","STATUS":"Active","FTR_FUNCTN":"Amenity","FTR_TYP":"Football Field","LOCATION":"Optimist Park","LOCTNTYP":"Park","FTRNAME":"Optimist Football Field 1","FTRLBL":" "}},{"type":"Feature","id":50,"geometry":{"type":"Point","coordinates":[-116.53016367136239,43.615347392993733]},"properties":{"OBJECTID_1":50,"OBJECTID":1148,"UNIQID":"PKPT717","OWNER":"Nampa","MANAGER":"Nampa","STATUS":"Active","FTR_FUNCTN":"Amenity","FTR_TYP":"Football Field","LOCATION":"Optimist Park","LOCTNTYP":"Park","FTRNAME":"Optimist Football Field 2","FTRLBL":" "}},{"type":"Feature","id":51,"geometry":{"type":"Point","coordinates":[-116.55818638774495,43.544954488470196]},"properties":{"OBJECTID_1":51,"OBJECTID":1152,"UNIQID":"PKPT723","OWNER":"Nampa","MANAGER":"Nampa","STATUS":"Active","FTR_FUNCTN":"Amenity","FTR_TYP":"Sand Volleyball","LOCATION":"Skyview Park","LOCTNTYP":"Park","FTRNAME":"Skyview Sand Volleyball","FTRLBL":" "}},{"type":"Feature","id":52,"geometry":{"type":"Point","coordinates":[-116.55873327657939,43.543661705844634]},"properties":{"OBJECTID_1":52,"OBJECTID":1154,"UNIQID":"PKPT725","OWNER":"Nampa","MANAGER":"Nampa","STATUS":"Active","FTR_FUNCTN":"Amenity","FTR_TYP":"Baseball Field","LOCATION":"Skyview Park","LOCTNTYP":"Park","FTRNAME":"Skyview SE Baseball Field","FTRLBL":" "}},{"type":"Feature","id":53,"geometry":{"type":"Point","coordinates":[-116.55871993456584,43.544231135855441]},"properties":{"OBJECTID_1":53,"OBJECTID":1155,"UNIQID":"PKPT726","OWNER":"Nampa","MANAGER":"Nampa","STATUS":"Active","FTR_FUNCTN":"Amenity","FTR_TYP":"Baseball Field","LOCATION":"Skyview Park","LOCTNTYP":"Park","FTRNAME":"Skyview NE Baseball Field","FTRLBL":" "}},{"type":"Feature","id":54,"geometry":{"type":"Point","coordinates":[-116.55940388296966,43.544237035068441]},"properties":{"OBJECTID_1":54,"OBJECTID":1156,"UNIQID":"PKPT727","OWNER":"Nampa","MANAGER":"Nampa","STATUS":"Active","FTR_FUNCTN":"Amenity","FTR_TYP":"Baseball Field","LOCATION":"Skyview Park","LOCTNTYP":"Park","FTRNAME":"Skyview NW Baseball Field","FTRLBL":" "}},{"type":"Feature","id":55,"geometry":{"type":"Point","coordinates":[-116.55940998299494,43.543660641632819]},"properties":{"OBJECTID_1":55,"OBJECTID":1157,"UNIQID":"PKPT728","OWNER":"Nampa","MANAGER":"Nampa","STATUS":"Active","FTR_FUNCTN":"Amenity","FTR_TYP":"Baseball Field","LOCATION":"Skyview Park","LOCTNTYP":"Park","FTRNAME":"Skyview SW Baseball Field","FTRLBL":" "}},{"type":"Feature","id":56,"geometry":{"type":"Point","coordinates":[-116.55906976046941,43.543939836199065]},"properties":{"OBJECTID_1":56,"OBJECTID":1158,"UNIQID":"PKPT729","OWNER":"Nampa","MANAGER":"Nampa","STATUS":"Active","FTR_FUNCTN":"Amenity","FTR_TYP":"Restrooms","LOCATION":"Skyview Park","LOCTNTYP":"Park","FTRNAME":"Skyview Park Restrooms","FTRLBL":" "}},{"type":"Feature","id":57,"geometry":{"type":"Point","coordinates":[-116.55924832962803,43.584979663590161]},"properties":{"OBJECTID_1":57,"OBJECTID":1175,"UNIQID":"PKPT746","OWNER":"Nampa","MANAGER":"Nampa","STATUS":"Active","FTR_FUNCTN":"Amenity","FTR_TYP":"Basketball Court","LOCATION":"Hunter Park","LOCTNTYP":"Park","FTRNAME":"Hunter Basketball Court","FTRLBL":" "}},{"type":"Feature","id":58,"geometry":{"type":"Point","coordinates":[-116.55005684058128,43.577357364453349]},"properties":{"OBJECTID_1":58,"OBJECTID":1176,"UNIQID":"PKPT747","OWNER":"Nampa","MANAGER":"Nampa","STATUS":"Active","FTR_FUNCTN":"Amenity","FTR_TYP":"Playground","LOCATION":"Indian Creek Park","LOCTNTYP":"Park","FTRNAME":"Indian Creek Playground","FTRLBL":" "}},{"type":"Feature","id":59,"geometry":{"type":"Point","coordinates":[-116.55012948851704,43.577809945097464]},"properties":{"OBJECTID_1":59,"OBJECTID":1177,"UNIQID":"PKPT748","OWNER":"Nampa","MANAGER":"Nampa","STATUS":"Active","FTR_FUNCTN":"Amenity","FTR_TYP":"Basketball Court","LOCATION":"Indian Creek Park","LOCTNTYP":"Park","FTRNAME":"Indian Creek Basketball Court","FTRLBL":" "}},{"type":"Feature","id":60,"geometry":{"type":"Point","coordinates":[-116.55088333963353,43.577886226601755]},"properties":{"OBJECTID_1":60,"OBJECTID":1178,"UNIQID":"PKPT749","OWNER":"Nampa","MANAGER":"Nampa","STATUS":"Active","FTR_FUNCTN":"Amenity","FTR_TYP":"Baseball Field","LOCATION":"Indian Creek Park","LOCTNTYP":"Park","FTRNAME":"Indian Baseball Field","FTRLBL":" "}},{"type":"Feature","id":61,"geometry":{"type":"Point","coordinates":[-116.52888297473964,43.56857563142745]},"properties":{"OBJECTID_1":61,"OBJECTID":1180,"UNIQID":"PKPT751","OWNER":"Nampa","MANAGER":"Nampa","STATUS":"Active","FTR_FUNCTN":"Amenity","FTR_TYP":"Playground","LOCATION":"Kings Road Park","LOCTNTYP":"Park","FTRNAME":"Kings Road Playground","FTRLBL":" "}},{"type":"Feature","id":62,"geometry":{"type":"Point","coordinates":[-116.54455352517076,43.588450865521629]},"properties":{"OBJECTID_1":62,"OBJECTID":1181,"UNIQID":"PKPT752","OWNER":"Nampa","MANAGER":"Nampa","STATUS":"Active","FTR_FUNCTN":"Amenity","FTR_TYP":"Baseball Field","LOCATION":"Stampede Park","LOCTNTYP":"Park","FTRNAME":"Stampede Babe Ruth Baseball Fields","FTRLBL":" "}},{"type":"Feature","id":63,"geometry":{"type":"Point","coordinates":[-116.54458114454573,43.589627464906506]},"properties":{"OBJECTID_1":63,"OBJECTID":1182,"UNIQID":"PKPT753","OWNER":"Nampa","MANAGER":"Nampa","STATUS":"Active","FTR_FUNCTN":"Amenity","FTR_TYP":"Baseball Field","LOCATION":"Stampede Park","LOCTNTYP":"Park","FTRNAME":"Stampede Babe Ruth Baseball Fields","FTRLBL":" "}},{"type":"Feature","id":64,"geometry":{"type":"Point","coordinates":[-116.54373318580332,43.590200738923528]},"properties":{"OBJECTID_1":64,"OBJECTID":1183,"UNIQID":"PKPT754","OWNER":"Nampa","MANAGER":"Nampa","STATUS":"Active","FTR_FUNCTN":"Amenity","FTR_TYP":"Baseball Field","LOCATION":"Stampede Park","LOCTNTYP":"Park","FTRNAME":"Stampede Babe Ruth Baseball Fields","FTRLBL":" "}},{"type":"Feature","id":65,"geometry":{"type":"Point","coordinates":[-116.54371873805742,43.589101359463996]},"properties":{"OBJECTID_1":65,"OBJECTID":1184,"UNIQID":"PKPT755","OWNER":"Nampa","MANAGER":"Nampa","STATUS":"Active","FTR_FUNCTN":"Amenity","FTR_TYP":"Baseball Field","LOCATION":"Stampede Park","LOCTNTYP":"Park","FTRNAME":"Stampede Babe Ruth Baseball Fields","FTRLBL":" "}},{"type":"Feature","id":66,"geometry":{"type":"Point","coordinates":[-116.55362098019717,43.58116489815994]},"properties":{"OBJECTID_1":66,"OBJECTID":1185,"UNIQID":"PKPT756","OWNER":"Nampa","MANAGER":"Nampa","STATUS":"Active","FTR_FUNCTN":"Amenity","FTR_TYP":"Sheltered Picnic Area","LOCATION":"Starr Park","LOCTNTYP":"Park","FTRNAME":"Starr Park Shelter","FTRLBL":"Starr Park Shelter"}},{"type":"Feature","id":67,"geometry":{"type":"Point","coordinates":[-116.54802801585225,43.611635544523352]},"properties":{"OBJECTID_1":67,"OBJECTID":1186,"UNIQID":"PKPT757","OWNER":"Nampa","MANAGER":"Nampa","STATUS":"Active","FTR_FUNCTN":"Amenity","FTR_TYP":"Playground","LOCATION":"Sunset Oaks Park","LOCTNTYP":"Park","FTRNAME":"Sunset Oaks Playground","FTRLBL":" "}},{"type":"Feature","id":68,"geometry":{"type":"Point","coordinates":[-116.54771902317728,43.611606053368739]},"properties":{"OBJECTID_1":68,"OBJECTID":1187,"UNIQID":"PKPT758","OWNER":"Nampa","MANAGER":"Nampa","STATUS":"Active","FTR_FUNCTN":"Amenity","FTR_TYP":"Picnic Table","LOCATION":"Sunset Oaks Park","LOCTNTYP":"Park","FTRNAME":"Sunset Oaks Picnic Table","FTRLBL":" "}},{"type":"Feature","id":69,"geometry":{"type":"Point","coordinates":[-116.54839697117717,43.611565596994616]},"properties":{"OBJECTID_1":69,"OBJECTID":1188,"UNIQID":"PKPT759","OWNER":"Nampa","MANAGER":"Nampa","STATUS":"Active","FTR_FUNCTN":"Amenity","FTR_TYP":"Picnic Table","LOCATION":"Sunset Oaks Park","LOCTNTYP":"Park","FTRNAME":"Sunset Oaks Picnic Table","FTRLBL":" "}},{"type":"Feature","id":70,"geometry":{"type":"Point","coordinates":[-116.60509844682376,43.568358775555545]},"properties":{"OBJECTID_1":70,"OBJECTID":1189,"UNIQID":"PKPT1304","OWNER":"Nampa","MANAGER":"Nampa","STATUS":"Active","FTR_FUNCTN":"Amenity","FTR_TYP":"Skate Park","LOCATION":"West Roosevelt Park","LOCTNTYP":"Park","FTRNAME":"W Roosevelt Skate Park","FTRLBL":" "}},{"type":"Feature","id":71,"geometry":{"type":"Point","coordinates":[-116.56425046891712,43.552164376995975]},"properties":{"OBJECTID_1":71,"OBJECTID":1191,"UNIQID":"PKPT761","OWNER":"Nampa","MANAGER":"Nampa","STATUS":"Active","FTR_FUNCTN":"Amenity","FTR_TYP":"Basketball Court","LOCATION":"Liberty Park","LOCTNTYP":"Park","FTRNAME":"Liberty Basketball Court 1","FTRLBL":" "}},{"type":"Feature","id":72,"geometry":{"type":"Point","coordinates":[-116.56652431033952,43.554022222652677]},"properties":{"OBJECTID_1":72,"OBJECTID":1192,"UNIQID":"PKPT762","OWNER":"Nampa","MANAGER":"Nampa","STATUS":"Active","FTR_FUNCTN":"Amenity","FTR_TYP":"Baseball Field","LOCATION":"Liberty Park","LOCTNTYP":"Park","FTRNAME":"Liberty Baseball Field","FTRLBL":" "}},{"type":"Feature","id":73,"geometry":{"type":"Point","coordinates":[-116.58657193473363,43.585876278377533]},"properties":{"OBJECTID_1":73,"OBJECTID":1193,"UNIQID":"PKPT763","OWNER":"Nampa","MANAGER":"Nampa","STATUS":"Active","FTR_FUNCTN":"Amenity","FTR_TYP":"Sand Volleyball","LOCATION":"Lions Park","LOCTNTYP":"Park","FTRNAME":"Lions Sand Volleyball","FTRLBL":" "}},{"type":"Feature","id":74,"geometry":{"type":"Point","coordinates":[-116.58666662698597,43.585625565919955]},"properties":{"OBJECTID_1":74,"OBJECTID":1194,"UNIQID":"PKPT764","OWNER":"Nampa","MANAGER":"Nampa","STATUS":"Active","FTR_FUNCTN":"Amenity","FTR_TYP":"Basketball Court","LOCATION":"Lions Park","LOCTNTYP":"Park","FTRNAME":"Lions Pool Basketball Court","FTRLBL":" "}},{"type":"Feature","id":75,"geometry":{"type":"Point","coordinates":[-116.58714957379406,43.586371539682752]},"properties":{"OBJECTID_1":75,"OBJECTID":1195,"UNIQID":"PKPT765","OWNER":"Nampa","MANAGER":"Nampa","STATUS":"Active","FTR_FUNCTN":"Amenity","FTR_TYP":"Baseball Field","LOCATION":"Lions Park","LOCTNTYP":"Park","FTRNAME":"Lions Daniel's Baseball Field","FTRLBL":" "}},{"type":"Feature","id":76,"geometry":{"type":"Point","coordinates":[-116.58482276598856,43.587581090034078]},"properties":{"OBJECTID_1":76,"OBJECTID":1196,"UNIQID":"PKPT766","OWNER":"Nampa","MANAGER":"Nampa","STATUS":"Active","FTR_FUNCTN":"Amenity","FTR_TYP":"Baseball Field","LOCATION":"Lions Park","LOCTNTYP":"Park","FTRNAME":"Lions Weaver Baseball Field","FTRLBL":" "}},{"type":"Feature","id":77,"geometry":{"type":"Point","coordinates":[-116.58440388484527,43.58749841257962]},"properties":{"OBJECTID_1":77,"OBJECTID":1197,"UNIQID":"PKPT767","OWNER":"Nampa","MANAGER":"Nampa","STATUS":"Active","FTR_FUNCTN":"Amenity","FTR_TYP":"Baseball Field","LOCATION":"Lions Park","LOCTNTYP":"Park","FTRNAME":"Lions Weaver Baseball Field","FTRLBL":" "}},{"type":"Feature","id":78,"geometry":{"type":"Point","coordinates":[-116.58402734587145,43.588063358954649]},"properties":{"OBJECTID_1":78,"OBJECTID":1198,"UNIQID":"PKPT768","OWNER":"Nampa","MANAGER":"Nampa","STATUS":"Active","FTR_FUNCTN":"Amenity","FTR_TYP":"Playground","LOCATION":"Lions Park","LOCTNTYP":"Park","FTRNAME":"Lions Northend Playground","FTRLBL":" "}},{"type":"Feature","id":79,"geometry":{"type":"Point","coordinates":[-116.58466395142167,43.587858235483552]},"properties":{"OBJECTID_1":79,"OBJECTID":1199,"UNIQID":"PKPT769","OWNER":"Nampa","MANAGER":"Nampa","STATUS":"Active","FTR_FUNCTN":"Amenity","FTR_TYP":"Restrooms","LOCATION":"Lions Park","LOCTNTYP":"Park","FTRNAME":"Lions North End Restrooms","FTRLBL":" "}},{"type":"Feature","id":80,"geometry":{"type":"Point","coordinates":[-116.52865439608935,43.615197541615423]},"properties":{"OBJECTID_1":80,"OBJECTID":1201,"UNIQID":"PKPT771","OWNER":"Nampa","MANAGER":"Nampa","STATUS":"Active","FTR_FUNCTN":"Amenity","FTR_TYP":"Baseball Field","LOCATION":"Optimist Park","LOCTNTYP":"Park","FTRNAME":"Optimist East Baseball Field","FTRLBL":" "}},{"type":"Feature","id":81,"geometry":{"type":"Point","coordinates":[-116.53251374170661,43.615533486394639]},"properties":{"OBJECTID_1":81,"OBJECTID":1202,"UNIQID":"PKPT772","OWNER":"Nampa","MANAGER":"Nampa","STATUS":"Active","FTR_FUNCTN":"Amenity","FTR_TYP":"Baseball Field","LOCATION":"Optimist Park","LOCTNTYP":"Park","FTRNAME":"Optimist West Baseball Field","FTRLBL":" "}},{"type":"Feature","id":82,"geometry":{"type":"Point","coordinates":[-116.58641078319479,43.573549469747277]},"properties":{"OBJECTID_1":82,"OBJECTID":1204,"UNIQID":"PKPT774","OWNER":"Nampa","MANAGER":"Nampa","STATUS":"Active","FTR_FUNCTN":"Amenity","FTR_TYP":"Pond","LOCATION":"West Park","LOCTNTYP":"Park","FTRNAME":"West Park Pond","FTRLBL":" "}},{"type":"Feature","id":83,"geometry":{"type":"Point","coordinates":[-116.58803786658893,43.574156894917635]},"properties":{"OBJECTID_1":83,"OBJECTID":1205,"UNIQID":"PKPT775","OWNER":"Nampa","MANAGER":"Nampa","STATUS":"Active","FTR_FUNCTN":"Amenity","FTR_TYP":"Baseball Field","LOCATION":"West Park","LOCTNTYP":"Park","FTRNAME":"West NE Baseball Field","FTRLBL":" "}},{"type":"Feature","id":84,"geometry":{"type":"Point","coordinates":[-116.5888247022518,43.573850371218484]},"properties":{"OBJECTID_1":84,"OBJECTID":1206,"UNIQID":"PKPT776","OWNER":"Nampa","MANAGER":"Nampa","STATUS":"Active","FTR_FUNCTN":"Amenity","FTR_TYP":"Baseball Field","LOCATION":"West Park","LOCTNTYP":"Park","FTRNAME":"West SW Baseball Field","FTRLBL":" "}},{"type":"Feature","id":85,"geometry":{"type":"Point","coordinates":[-116.5882168445717,43.573702258699235]},"properties":{"OBJECTID_1":85,"OBJECTID":1207,"UNIQID":"PKPT777","OWNER":"Nampa","MANAGER":"Nampa","STATUS":"Active","FTR_FUNCTN":"Amenity","FTR_TYP":"Baseball Field","LOCATION":"West Park","LOCTNTYP":"Park","FTRNAME":"West SE Baseball Field","FTRLBL":" "}},{"type":"Feature","id":86,"geometry":{"type":"Point","coordinates":[-116.58863816442552,43.574283630334584]},"properties":{"OBJECTID_1":86,"OBJECTID":1208,"UNIQID":"PKPT778","OWNER":"Nampa","MANAGER":"Nampa","STATUS":"Active","FTR_FUNCTN":"Amenity","FTR_TYP":"Baseball Field","LOCATION":"West Park","LOCTNTYP":"Park","FTRNAME":"West NW Baseball Field","FTRLBL":" "}},{"type":"Feature","id":87,"geometry":{"type":"Point","coordinates":[-116.52300941786257,43.539762545703567]},"properties":{"OBJECTID_1":87,"OBJECTID":1229,"UNIQID":"PKPT794","OWNER":"Nampa","MANAGER":"Nampa","STATUS":"Active","FTR_FUNCTN":"Amenity","FTR_TYP":"Horseshoe Pits","LOCATION":"Osborne Park","LOCTNTYP":"Park","FTRNAME":"Osborne Horseshoe Pits","FTRLBL":" "}},{"type":"Feature","id":88,"geometry":{"type":"Point","coordinates":[-116.54426313660095,43.586182838498765]},"properties":{"OBJECTID_1":88,"OBJECTID":1230,"UNIQID":"PKPT1127","OWNER":"Nampa","MANAGER":"Nampa","STATUS":"Active","FTR_FUNCTN":"Amenity","FTR_TYP":"Horseshoe Pits","LOCATION":"Maple Grove Park","LOCTNTYP":"Park","FTRNAME":"Maple Grove Horseshoe Pits","FTRLBL":" "}},{"type":"Feature","id":89,"geometry":{"type":"Point","coordinates":[-116.5852206225357,43.573999559724179]},"properties":{"OBJECTID_1":89,"OBJECTID":1231,"UNIQID":"PKPT795","OWNER":"Nampa","MANAGER":"Nampa","STATUS":"Active","FTR_FUNCTN":"Amenity","FTR_TYP":"Playground","LOCATION":"West Park","LOCTNTYP":"Park","FTRNAME":"West Park # 1 Playground","FTRLBL":" "}},{"type":"Feature","id":90,"geometry":{"type":"Point","coordinates":[-116.58725951795822,43.585646828873642]},"properties":{"OBJECTID_1":90,"OBJECTID":1235,"UNIQID":"PKPT799","OWNER":"Nampa","MANAGER":"Nampa","STATUS":"Active","FTR_FUNCTN":"Amenity","FTR_TYP":"Playground","LOCATION":"Lions Park","LOCTNTYP":"Park","FTRNAME":"Lions Pool Playground","FTRLBL":" "}},{"type":"Feature","id":91,"geometry":{"type":"Point","coordinates":[-116.58784630037647,43.585401923735816]},"properties":{"OBJECTID_1":91,"OBJECTID":1236,"UNIQID":"PKPT800","OWNER":"Nampa","MANAGER":"Nampa","STATUS":"Active","FTR_FUNCTN":"Amenity","FTR_TYP":"Water Park","LOCATION":"Lions Park","LOCTNTYP":"Park","FTRNAME":"Lincoln Pool","FTRLBL":" "}},{"type":"Feature","id":92,"geometry":{"type":"Point","coordinates":[-116.5496220387752,43.585089783535011]},"properties":{"OBJECTID_1":92,"OBJECTID":1237,"UNIQID":"PKPT801","OWNER":"Nampa","MANAGER":"Nampa","STATUS":"Active","FTR_FUNCTN":"Amenity","FTR_TYP":"Water Park","LOCATION":"Lakeview Park","LOCTNTYP":"Park","FTRNAME":"Lakeview Water Park","FTRLBL":" "}},{"type":"Feature","id":93,"geometry":{"type":"Point","coordinates":[-116.54697707264303,43.585032596260611]},"properties":{"OBJECTID_1":93,"OBJECTID":1238,"UNIQID":"PKPT802","OWNER":"Nampa","MANAGER":"Nampa","STATUS":"Active","FTR_FUNCTN":"Amenity","FTR_TYP":"Restrooms","LOCATION":"Lakeview Park","LOCTNTYP":"Park","FTRNAME":"Lakeview Fireplace Restrooms","FTRLBL":" "}},{"type":"Feature","id":94,"geometry":{"type":"Point","coordinates":[-116.5468448252817,43.584412348960818]},"properties":{"OBJECTID_1":94,"OBJECTID":1239,"UNIQID":"PKPT803","OWNER":"Nampa","MANAGER":"Nampa","STATUS":"Active","FTR_FUNCTN":"Amenity","FTR_TYP":"Sheltered Picnic Area","LOCATION":"Lakeview Park","LOCTNTYP":"Park","FTRNAME":"Lakeview Fireplace Shelter","FTRLBL":"Lakeview Fireplace Shelter"}},{"type":"Feature","id":95,"geometry":{"type":"Point","coordinates":[-116.5470425864217,43.584502421734605]},"properties":{"OBJECTID_1":95,"OBJECTID":1240,"UNIQID":"PKPT804","OWNER":"Nampa","MANAGER":"Nampa","STATUS":"Active","FTR_FUNCTN":"Amenity","FTR_TYP":"Sheltered Picnic Area","LOCATION":"Lakeview Park","LOCTNTYP":"Park","FTRNAME":"Lakeview Fireplace Shelter","FTRLBL":"Lakeview Fireplace Shelter"}},{"type":"Feature","id":96,"geometry":{"type":"Point","coordinates":[-116.54790389150844,43.584558548199468]},"properties":{"OBJECTID_1":96,"OBJECTID":1241,"UNIQID":"PKPT805","OWNER":"Nampa","MANAGER":"Nampa","STATUS":"Active","FTR_FUNCTN":"Amenity","FTR_TYP":"Ampitheater","LOCATION":"Lakeview Park","LOCTNTYP":"Park","FTRNAME":"Lakeview Park Ampitheater","FTRLBL":"Ampitheater"}},{"type":"Feature","id":97,"geometry":{"type":"Point","coordinates":[-116.54667005394818,43.583886602636042]},"properties":{"OBJECTID_1":97,"OBJECTID":1242,"UNIQID":"PKPT806","OWNER":"Nampa","MANAGER":"Nampa","STATUS":"Active","FTR_FUNCTN":"Amenity","FTR_TYP":"Pond","LOCATION":"Lakeview Park","LOCTNTYP":"Park","FTRNAME":"Lakeview Pond","FTRLBL":" "}},{"type":"Feature","id":98,"geometry":{"type":"Point","coordinates":[-116.52418668649818,43.541107590464875]},"properties":{"OBJECTID_1":98,"OBJECTID":1249,"UNIQID":"PKPT813","OWNER":"Nampa","MANAGER":"Nampa","STATUS":"Active","FTR_FUNCTN":"Amenity","FTR_TYP":"Playground","LOCATION":"Osborne Park","LOCTNTYP":"Park","FTRNAME":"Osborne Playground","FTRLBL":" "}},{"type":"Feature","id":99,"geometry":{"type":"Point","coordinates":[-116.52432871103036,43.541244357674948]},"properties":{"OBJECTID_1":99,"OBJECTID":1250,"UNIQID":"PKPT814","OWNER":"Nampa","MANAGER":"Nampa","STATUS":"Active","FTR_FUNCTN":"Amenity","FTR_TYP":"Sheltered Picnic Area","LOCATION":"Osborne Park","LOCTNTYP":"Park","FTRNAME":"Osborne Park Shelter","FTRLBL":"Osborne Park Shelter"}},{"type":"Feature","id":100,"geometry":{"type":"Point","coordinates":[-116.52186867690304,43.538829051962026]},"properties":{"OBJECTID_1":100,"OBJECTID":1251,"UNIQID":"PKPT815","OWNER":"Nampa","MANAGER":"Nampa","STATUS":"Active","FTR_FUNCTN":"Amenity","FTR_TYP":"Picnic Table","LOCATION":"Osborne Park","LOCTNTYP":"Park","FTRNAME":"Osborne Picnic Table","FTRLBL":" "}},{"type":"Feature","id":101,"geometry":{"type":"Point","coordinates":[-116.52291091359874,43.539639366049769]},"properties":{"OBJECTID_1":101,"OBJECTID":1252,"UNIQID":"PKPT816","OWNER":"Nampa","MANAGER":"Nampa","STATUS":"Active","FTR_FUNCTN":"Amenity","FTR_TYP":"Picnic Table","LOCATION":"Osborne Park","LOCTNTYP":"Park","FTRNAME":"Osborne Picnic Table","FTRLBL":" "}},{"type":"Feature","id":102,"geometry":{"type":"Point","coordinates":[-116.52283729591598,43.539617000678767]},"properties":{"OBJECTID_1":102,"OBJECTID":1253,"UNIQID":"PKPT817","OWNER":"Nampa","MANAGER":"Nampa","STATUS":"Active","FTR_FUNCTN":"Amenity","FTR_TYP":"Picnic Table","LOCATION":"Osborne Park","LOCTNTYP":"Park","FTRNAME":"Osborne Picnic Table","FTRLBL":" "}},{"type":"Feature","id":103,"geometry":{"type":"Point","coordinates":[-116.52412912360548,43.541189742564086]},"properties":{"OBJECTID_1":103,"OBJECTID":1254,"UNIQID":"PKPT818","OWNER":"Nampa","MANAGER":"Nampa","STATUS":"Active","FTR_FUNCTN":"Amenity","FTR_TYP":"Picnic Table","LOCATION":"Osborne Park","LOCTNTYP":"Park","FTRNAME":"Osborne Picnic Table","FTRLBL":" "}},{"type":"Feature","id":104,"geometry":{"type":"Point","coordinates":[-116.52418608769101,43.541189595373275]},"properties":{"OBJECTID_1":104,"OBJECTID":1255,"UNIQID":"PKPT819","OWNER":"Nampa","MANAGER":"Nampa","STATUS":"Active","FTR_FUNCTN":"Amenity","FTR_TYP":"Picnic Table","LOCATION":"Osborne Park","LOCTNTYP":"Park","FTRNAME":"Osborne Picnic Table","FTRLBL":" "}},{"type":"Feature","id":105,"geometry":{"type":"Point","coordinates":[-116.56664825123126,43.591395909666254]},"properties":{"OBJECTID_1":105,"OBJECTID":1261,"UNIQID":"PKPT826","OWNER":"Nampa","MANAGER":"Nampa","STATUS":"Active","FTR_FUNCTN":"Amenity","FTR_TYP":"Picnic Table","LOCATION":"City Acres Park","LOCTNTYP":"Park","FTRNAME":"City Acres Picnic Table","FTRLBL":" "}},{"type":"Feature","id":106,"geometry":{"type":"Point","coordinates":[-116.56651189123238,43.591294953332145]},"properties":{"OBJECTID_1":106,"OBJECTID":1263,"UNIQID":"PKPT828","OWNER":"Nampa","MANAGER":"Nampa","STATUS":"Active","FTR_FUNCTN":"Amenity","FTR_TYP":"Picnic Table","LOCATION":"City Acres Park","LOCTNTYP":"Park","FTRNAME":"City Acres Picnic Table","FTRLBL":" "}},{"type":"Feature","id":107,"geometry":{"type":"Point","coordinates":[-116.53608582685385,43.56221313036113]},"properties":{"OBJECTID_1":107,"OBJECTID":1277,"UNIQID":"PKPT64","OWNER":"Nampa","MANAGER":"Nampa","STATUS":"Active","FTR_FUNCTN":"Amenity","FTR_TYP":"Pond","LOCATION":"Amity Dog Park","LOCTNTYP":"Park","FTRNAME":"Amity Pond","FTRLBL":" "}},{"type":"Feature","id":108,"geometry":{"type":"Point","coordinates":[-116.53565823671526,43.562273226982263]},"properties":{"OBJECTID_1":108,"OBJECTID":1278,"UNIQID":"PKPT65","OWNER":"Nampa","MANAGER":"Nampa","STATUS":"Active","FTR_FUNCTN":"Amenity","FTR_TYP":"Sheltered Picnic Area","LOCATION":"Amity Dog Park","LOCTNTYP":"Park","FTRNAME":"Amity Dog Park Shelter - East","FTRLBL":"Amity Dog Park Shelter"}},{"type":"Feature","id":109,"geometry":{"type":"Point","coordinates":[-116.53596119663101,43.562904640603861]},"properties":{"OBJECTID_1":109,"OBJECTID":1279,"UNIQID":"PKPT66","OWNER":"Nampa","MANAGER":"Nampa","STATUS":"Active","FTR_FUNCTN":"Amenity","FTR_TYP":"Sheltered Picnic Area","LOCATION":"Amity Dog Park","LOCTNTYP":"Park","FTRNAME":"Amity Dog Park Shelter - North","FTRLBL":"Amity Dog Park Shelter"}},{"type":"Feature","id":110,"geometry":{"type":"Point","coordinates":[-116.53704435960549,43.561981716347553]},"properties":{"OBJECTID_1":110,"OBJECTID":1280,"UNIQID":"PKPT67","OWNER":"Nampa","MANAGER":"Nampa","STATUS":"Active","FTR_FUNCTN":"Amenity","FTR_TYP":"Sheltered Picnic Area","LOCATION":"Amity Dog Park","LOCTNTYP":"Park","FTRNAME":"Amity Dog Park Shelter - West","FTRLBL":"Amity Dog Park Shelter"}},{"type":"Feature","id":111,"geometry":{"type":"Point","coordinates":[-116.55465244833155,43.568905791418963]},"properties":{"OBJECTID_1":111,"OBJECTID":1288,"UNIQID":"PKPT840","OWNER":"Nampa","MANAGER":"Nampa","STATUS":"Active","FTR_FUNCTN":"Amenity","FTR_TYP":"Picnic Table","LOCATION":"East Side Park","LOCTNTYP":"Park","FTRNAME":"East Side Picnic Table","FTRLBL":" "}},{"type":"Feature","id":112,"geometry":{"type":"Point","coordinates":[-116.55427361213488,43.568792237112106]},"properties":{"OBJECTID_1":112,"OBJECTID":1289,"UNIQID":"PKPT841","OWNER":"Nampa","MANAGER":"Nampa","STATUS":"Active","FTR_FUNCTN":"Amenity","FTR_TYP":"Picnic Table","LOCATION":"East Side Park","LOCTNTYP":"Park","FTRNAME":"East Side Picnic Table","FTRLBL":" "}},{"type":"Feature","id":113,"geometry":{"type":"Point","coordinates":[-116.55892741439506,43.585128601774869]},"properties":{"OBJECTID_1":113,"OBJECTID":1292,"UNIQID":"PKPT845","OWNER":"Nampa","MANAGER":"Nampa","STATUS":"Active","FTR_FUNCTN":"Amenity","FTR_TYP":"Picnic Table","LOCATION":"Hunter Park","LOCTNTYP":"Park","FTRNAME":"Hunter Picnic Table","FTRLBL":" "}},{"type":"Feature","id":114,"geometry":{"type":"Point","coordinates":[-116.55849790044422,43.58537360559135]},"properties":{"OBJECTID_1":114,"OBJECTID":1293,"UNIQID":"PKPT846","OWNER":"Nampa","MANAGER":"Nampa","STATUS":"Active","FTR_FUNCTN":"Amenity","FTR_TYP":"Baseball Field","LOCATION":"Hunter Park","LOCTNTYP":"Park","FTRNAME":"Hunter Baseball Field","FTRLBL":" "}},{"type":"Feature","id":115,"geometry":{"type":"Point","coordinates":[-116.54995486982183,43.577597789880762]},"properties":{"OBJECTID_1":115,"OBJECTID":1295,"UNIQID":"PKPT848","OWNER":"Nampa","MANAGER":"Nampa","STATUS":"Active","FTR_FUNCTN":"Amenity","FTR_TYP":"Picnic Table","LOCATION":"Indian Creek Park","LOCTNTYP":"Park","FTRNAME":"Indian Crk Prk Picnic Table","FTRLBL":" "}},{"type":"Feature","id":116,"geometry":{"type":"Point","coordinates":[-116.54991612955683,43.577492319257082]},"properties":{"OBJECTID_1":116,"OBJECTID":1296,"UNIQID":"PKPT849","OWNER":"Nampa","MANAGER":"Nampa","STATUS":"Active","FTR_FUNCTN":"Amenity","FTR_TYP":"Picnic Table","LOCATION":"Indian Creek Park","LOCTNTYP":"Park","FTRNAME":"Indian Crk Prk Picnic Table","FTRLBL":" "}},{"type":"Feature","id":117,"geometry":{"type":"Point","coordinates":[-116.55060312313344,43.57813886543083]},"properties":{"OBJECTID_1":117,"OBJECTID":1298,"UNIQID":"PKPT851","OWNER":"Nampa","MANAGER":"Nampa","STATUS":"Active","FTR_FUNCTN":"Amenity","FTR_TYP":"Picnic Table","LOCATION":"Indian Creek Park","LOCTNTYP":"Park","FTRNAME":"Indian Crk Prk Picnic Table","FTRLBL":" "}},{"type":"Feature","id":118,"geometry":{"type":"Point","coordinates":[-116.55051220147298,43.57819951716845]},"properties":{"OBJECTID_1":118,"OBJECTID":1299,"UNIQID":"PKPT852","OWNER":"Nampa","MANAGER":"Nampa","STATUS":"Active","FTR_FUNCTN":"Amenity","FTR_TYP":"Picnic Table","LOCATION":"Indian Creek Park","LOCTNTYP":"Park","FTRNAME":"Indian Crk Prk Picnic Table","FTRLBL":" "}},{"type":"Feature","id":119,"geometry":{"type":"Point","coordinates":[-116.52899542692256,43.568634218810381]},"properties":{"OBJECTID_1":119,"OBJECTID":1302,"UNIQID":"PKPT855","OWNER":"Nampa","MANAGER":"Nampa","STATUS":"Active","FTR_FUNCTN":"Amenity","FTR_TYP":"Picnic Table","LOCATION":"Kings Road Park","LOCTNTYP":"Park","FTRNAME":"Kings Rd Picnic Table","FTRLBL":" "}},{"type":"Feature","id":120,"geometry":{"type":"Point","coordinates":[-116.52891735891444,43.568472804775048]},"properties":{"OBJECTID_1":120,"OBJECTID":1304,"UNIQID":"PKPT857","OWNER":"Nampa","MANAGER":"Nampa","STATUS":"Active","FTR_FUNCTN":"Amenity","FTR_TYP":"Picnic Table","LOCATION":"Kings Road Park","LOCTNTYP":"Park","FTRNAME":"Kings Rd Picnic Table","FTRLBL":" "}},{"type":"Feature","id":121,"geometry":{"type":"Point","coordinates":[-116.58393999772636,43.588283348771469]},"properties":{"OBJECTID_1":121,"OBJECTID":1336,"UNIQID":"PKPT867","OWNER":"Nampa","MANAGER":"Nampa","STATUS":"Active","FTR_FUNCTN":"Amenity","FTR_TYP":"Picnic Table","LOCATION":"Lions Park","LOCTNTYP":"Park","FTRNAME":"Lions Picnic Table","FTRLBL":" "}},{"type":"Feature","id":122,"geometry":{"type":"Point","coordinates":[-116.58463980632007,43.587958225100053]},"properties":{"OBJECTID_1":122,"OBJECTID":1337,"UNIQID":"PKPT868","OWNER":"Nampa","MANAGER":"Nampa","STATUS":"Active","FTR_FUNCTN":"Amenity","FTR_TYP":"Picnic Table","LOCATION":"Lions Park","LOCTNTYP":"Park","FTRNAME":"Lions Picnic Table","FTRLBL":" "}},{"type":"Feature","id":123,"geometry":{"type":"Point","coordinates":[-116.58483516457575,43.588153989582615]},"properties":{"OBJECTID_1":123,"OBJECTID":1338,"UNIQID":"PKPT869","OWNER":"Nampa","MANAGER":"Nampa","STATUS":"Active","FTR_FUNCTN":"Amenity","FTR_TYP":"Picnic Table","LOCATION":"Lions Park","LOCTNTYP":"Park","FTRNAME":"Lions Picnic Table","FTRLBL":" "}},{"type":"Feature","id":124,"geometry":{"type":"Point","coordinates":[-116.54419820397878,43.58598992216519]},"properties":{"OBJECTID_1":124,"OBJECTID":1347,"UNIQID":"PKPT878","OWNER":"Nampa","MANAGER":"Nampa","STATUS":"Active","FTR_FUNCTN":"Amenity","FTR_TYP":"Picnic Table","LOCATION":"Maple Grove Park","LOCTNTYP":"Park","FTRNAME":"Maple Grove Picnic Table","FTRLBL":" "}},{"type":"Feature","id":125,"geometry":{"type":"Point","coordinates":[-116.60221035468602,43.553588528331062]},"properties":{"OBJECTID_1":125,"OBJECTID":1378,"UNIQID":"PKPT903","OWNER":"Nampa","MANAGER":"Nampa","STATUS":"Active","FTR_FUNCTN":"Amenity","FTR_TYP":"Picnic Table","LOCATION":"South Fork Park","LOCTNTYP":"Park","FTRNAME":"S Fork Picnic Table","FTRLBL":" "}},{"type":"Feature","id":126,"geometry":{"type":"Point","coordinates":[-116.54470079930651,43.609834880917298]},"properties":{"OBJECTID_1":126,"OBJECTID":1387,"UNIQID":"PKPT912","OWNER":"Nampa","MANAGER":"Nampa","STATUS":"Active","FTR_FUNCTN":"Amenity","FTR_TYP":"Picnic Table","LOCATION":"Sunset Oaks Park","LOCTNTYP":"Park","FTRNAME":"Sunset Oaks Picnic Table","FTRLBL":" "}},{"type":"Feature","id":127,"geometry":{"type":"Point","coordinates":[-116.54492304286558,43.609761889613509]},"properties":{"OBJECTID_1":127,"OBJECTID":1392,"UNIQID":"PKPT917","OWNER":"Nampa","MANAGER":"Nampa","STATUS":"Active","FTR_FUNCTN":"Amenity","FTR_TYP":"Basketball Court","LOCATION":"Sunset Oaks Park","LOCTNTYP":"Park","FTRNAME":"Sunset Oaks Basketball Court","FTRLBL":" "}},{"type":"Feature","id":128,"geometry":{"type":"Point","coordinates":[-116.58471859589504,43.57432173777724]},"properties":{"OBJECTID_1":128,"OBJECTID":1413,"UNIQID":"PKPT939","OWNER":"Nampa","MANAGER":"Nampa","STATUS":"Active","FTR_FUNCTN":"Amenity","FTR_TYP":"Picnic Table","LOCATION":"West Park","LOCTNTYP":"Park","FTRNAME":"West Park Picnic Table","FTRLBL":" "}},{"type":"Feature","id":129,"geometry":{"type":"Point","coordinates":[-116.58519804811891,43.574393339700933]},"properties":{"OBJECTID_1":129,"OBJECTID":1414,"UNIQID":"PKPT940","OWNER":"Nampa","MANAGER":"Nampa","STATUS":"Active","FTR_FUNCTN":"Amenity","FTR_TYP":"Picnic Table","LOCATION":"West Park","LOCTNTYP":"Park","FTRNAME":"West Park Picnic Table","FTRLBL":" "}},{"type":"Feature","id":130,"geometry":{"type":"Point","coordinates":[-116.58541196484052,43.574066519844706]},"properties":{"OBJECTID_1":130,"OBJECTID":1415,"UNIQID":"PKPT941","OWNER":"Nampa","MANAGER":"Nampa","STATUS":"Active","FTR_FUNCTN":"Amenity","FTR_TYP":"Picnic Table","LOCATION":"West Park","LOCTNTYP":"Park","FTRNAME":"West Park Picnic Table","FTRLBL":" "}},{"type":"Feature","id":131,"geometry":{"type":"Point","coordinates":[-116.58506975692997,43.573956779506773]},"properties":{"OBJECTID_1":131,"OBJECTID":1416,"UNIQID":"PKPT8","OWNER":"Nampa","MANAGER":"Nampa","STATUS":"Active","FTR_FUNCTN":"Amenity","FTR_TYP":"Picnic Table","LOCATION":"West Park","LOCTNTYP":"Park","FTRNAME":"West Park Picnic Table","FTRLBL":" "}},{"type":"Feature","id":132,"geometry":{"type":"Point","coordinates":[-116.58469613116642,43.57400961468349]},"properties":{"OBJECTID_1":132,"OBJECTID":1417,"UNIQID":"PKPT9","OWNER":"Nampa","MANAGER":"Nampa","STATUS":"Active","FTR_FUNCTN":"Amenity","FTR_TYP":"Picnic Table","LOCATION":"West Park","LOCTNTYP":"Park","FTRNAME":"West Park Picnic Table","FTRLBL":" "}},{"type":"Feature","id":133,"geometry":{"type":"Point","coordinates":[-116.58567456899286,43.572979277993333]},"properties":{"OBJECTID_1":133,"OBJECTID":1458,"UNIQID":"PKPT42","OWNER":"Nampa","MANAGER":"Nampa","STATUS":"Active","FTR_FUNCTN":"Amenity","FTR_TYP":"Sand Volleyball","LOCATION":"West Park","LOCTNTYP":"Park","FTRNAME":"West Park Sand Volleyball","FTRLBL":" "}},{"type":"Feature","id":134,"geometry":{"type":"Point","coordinates":[-116.58654605990647,43.574199981984911]},"properties":{"OBJECTID_1":134,"OBJECTID":1459,"UNIQID":"PKPT43","OWNER":"Nampa","MANAGER":"Nampa","STATUS":"Active","FTR_FUNCTN":"Amenity","FTR_TYP":"Playground","LOCATION":"West Park","LOCTNTYP":"Park","FTRNAME":"West #2 - Universal Playground","FTRLBL":" "}},{"type":"Feature","id":135,"geometry":{"type":"Point","coordinates":[-116.585984415566,43.574870918635398]},"properties":{"OBJECTID_1":135,"OBJECTID":1460,"UNIQID":"PKPT942","OWNER":"Nampa","MANAGER":"Nampa","STATUS":"Active","FTR_FUNCTN":"Amenity","FTR_TYP":"Sheltered Picnic Area","LOCATION":"West Park","LOCTNTYP":"Park","FTRNAME":"West Park Shelter, by the Restroom","FTRLBL":"West 2 Restroom Shelter"}},{"type":"Feature","id":136,"geometry":{"type":"Point","coordinates":[-116.58541953584786,43.574519686866665]},"properties":{"OBJECTID_1":136,"OBJECTID":1461,"UNIQID":"PKPT943","OWNER":"Nampa","MANAGER":"Nampa","STATUS":"Active","FTR_FUNCTN":"Amenity","FTR_TYP":"Horseshoe Pits","LOCATION":"West Park","LOCTNTYP":"Park","FTRNAME":"West Park Horseshoe Pits","FTRLBL":" "}},{"type":"Feature","id":137,"geometry":{"type":"Point","coordinates":[-116.58566284798798,43.573434482641666]},"properties":{"OBJECTID_1":137,"OBJECTID":1462,"UNIQID":"PKPT944","OWNER":"Nampa","MANAGER":"Nampa","STATUS":"Active","FTR_FUNCTN":"Amenity","FTR_TYP":"Sheltered Picnic Area","LOCATION":"West Park","LOCTNTYP":"Park","FTRNAME":"West Park Shelter, by the Pond","FTRLBL":"West 1 by the Pond Shelter"}},{"type":"Feature","id":138,"geometry":{"type":"Point","coordinates":[-116.58612829692814,43.574716523112841]},"properties":{"OBJECTID_1":138,"OBJECTID":1463,"UNIQID":"PKPT945","OWNER":"Nampa","MANAGER":"Nampa","STATUS":"Active","FTR_FUNCTN":"Amenity","FTR_TYP":"Basketball Court","LOCATION":"West Park","LOCTNTYP":"Park","FTRNAME":"West Basketball Court","FTRLBL":" "}},{"type":"Feature","id":139,"geometry":{"type":"Point","coordinates":[-116.58351535068743,43.573567885089304]},"properties":{"OBJECTID_1":139,"OBJECTID":1464,"UNIQID":"PKPT947","OWNER":"Nampa","MANAGER":"Nampa","STATUS":"Active","FTR_FUNCTN":"Amenity","FTR_TYP":"Community Garden","LOCATION":"West Park","LOCTNTYP":"Park","FTRNAME":"West Park Community Garden","FTRLBL":" "}},{"type":"Feature","id":140,"geometry":{"type":"Point","coordinates":[-116.63566234953552,43.580733693126234]},"properties":{"OBJECTID_1":140,"OBJECTID":2515,"UNIQID":"PKPT2633","OWNER":"Nampa","MANAGER":"Nampa","STATUS":"Active","FTR_FUNCTN":"Amenity","FTR_TYP":"Baseball Field","LOCATION":"Midway Sports Park","LOCTNTYP":"Park","FTRNAME":"Midway Park Field 1","FTRLBL":" "}},{"type":"Feature","id":141,"geometry":{"type":"Point","coordinates":[-116.63566105529819,43.580287876913609]},"properties":{"OBJECTID_1":141,"OBJECTID":2516,"UNIQID":"PKPT2634","OWNER":"Nampa","MANAGER":"Nampa","STATUS":"Active","FTR_FUNCTN":"Amenity","FTR_TYP":"Baseball Field","LOCATION":"Midway Sports Park","LOCTNTYP":"Park","FTRNAME":"Midway Park Field 2","FTRLBL":" "}},{"type":"Feature","id":142,"geometry":{"type":"Point","coordinates":[-116.63624018551695,43.580283388774411]},"properties":{"OBJECTID_1":142,"OBJECTID":2517,"UNIQID":"PKPT2635","OWNER":"Nampa","MANAGER":"Nampa","STATUS":"Active","FTR_FUNCTN":"Amenity","FTR_TYP":"Baseball Field","LOCATION":"Midway Sports Park","LOCTNTYP":"Park","FTRNAME":"Midway Park Field 3","FTRLBL":" "}},{"type":"Feature","id":143,"geometry":{"type":"Point","coordinates":[-116.63623883517,43.580727320842612]},"properties":{"OBJECTID_1":143,"OBJECTID":2518,"UNIQID":"PKPT2636","OWNER":"Nampa","MANAGER":"Nampa","STATUS":"Active","FTR_FUNCTN":"Amenity","FTR_TYP":"Baseball Field","LOCATION":"Midway Sports Park","LOCTNTYP":"Park","FTRNAME":"Midway Park Field 4","FTRLBL":" "}},{"type":"Feature","id":144,"geometry":{"type":"Point","coordinates":[-116.56613731098865,43.552263426805112]},"properties":{"OBJECTID_1":144,"OBJECTID":3117,"UNIQID":"PKPT3096","OWNER":"Nampa","MANAGER":"Nampa","STATUS":"Active","FTR_FUNCTN":"Amenity","FTR_TYP":"Basketball Court","LOCATION":"Liberty Park","LOCTNTYP":"Park","FTRNAME":"Liberty Basketball Court 2","FTRLBL":" "}},{"type":"Feature","id":145,"geometry":{"type":"Point","coordinates":[-116.58418030763504,43.58793817697515]},"properties":{"OBJECTID_1":145,"OBJECTID":5331,"UNIQID":"PKPT3385","OWNER":"Nampa","MANAGER":"Nampa","STATUS":"Active","FTR_FUNCTN":"Amenity","FTR_TYP":"Picnic Table","LOCATION":"Lions Park","LOCTNTYP":"Park","FTRNAME":"Lions Picnic Table","FTRLBL":" "}},{"type":"Feature","id":146,"geometry":{"type":"Point","coordinates":[-116.54262358876572,43.60695645179802]},"properties":{"OBJECTID_1":146,"OBJECTID":5386,"UNIQID":"PKPT3440","OWNER":"Nampa","MANAGER":"Nampa","STATUS":"Temporary","FTR_FUNCTN":"Amenity","FTR_TYP":"Soccer Field","LOCATION":"McDonagh Park","LOCTNTYP":"Park","FTRNAME":"McDonagh Soccer Field","FTRLBL":" "}},{"type":"Feature","id":147,"geometry":{"type":"Point","coordinates":[-116.54213919766084,43.607440669914247]},"properties":{"OBJECTID_1":147,"OBJECTID":5387,"UNIQID":"PKPT3441","OWNER":"Nampa","MANAGER":"Nampa","STATUS":"Temporary","FTR_FUNCTN":"Amenity","FTR_TYP":"Soccer Field","LOCATION":"McDonagh Park","LOCTNTYP":"Park","FTRNAME":"McDonagh Soccer Field","FTRLBL":" "}},{"type":"Feature","id":148,"geometry":{"type":"Point","coordinates":[-116.54260304612976,43.606495076964435]},"properties":{"OBJECTID_1":148,"OBJECTID":5399,"UNIQID":"PKPT3453","OWNER":"Nampa","MANAGER":"Nampa","STATUS":"Temporary","FTR_FUNCTN":"Amenity","FTR_TYP":"Restrooms","LOCATION":"McDonagh Park","LOCTNTYP":"Park","FTRNAME":"McDonagh Park Portable Restrooms","FTRLBL":" "}},{"type":"Feature","id":149,"geometry":{"type":"Point","coordinates":[-116.53577273285097,43.56317324343803]},"properties":{"OBJECTID_1":149,"OBJECTID":5403,"UNIQID":"PKPT3457","OWNER":"Nampa","MANAGER":"Nampa","STATUS":"Active","FTR_FUNCTN":"Amenity","FTR_TYP":"Restrooms","LOCATION":"Amity Dog Park","LOCTNTYP":"Park","FTRNAME":"Amity Dog Park Restrooms","FTRLBL":" "}},{"type":"Feature","id":150,"geometry":{"type":"Point","coordinates":[-116.54355418471026,43.60796429924789]},"properties":{"OBJECTID_1":150,"OBJECTID":5815,"UNIQID":"PKPT3469","OWNER":"Nampa","MANAGER":"Nampa","STATUS":"Temporary","FTR_FUNCTN":"Amenity","FTR_TYP":"Soccer Field","LOCATION":"McDonagh Park","LOCTNTYP":"Park","FTRNAME":"McDonagh Soccer Field","FTRLBL":" "}},{"type":"Feature","id":151,"geometry":{"type":"Point","coordinates":[-116.54184915630934,43.60713398707739]},"properties":{"OBJECTID_1":151,"OBJECTID":5816,"UNIQID":"PKPT3470","OWNER":"Nampa","MANAGER":"Nampa","STATUS":"Temporary","FTR_FUNCTN":"Amenity","FTR_TYP":"Soccer Field","LOCATION":"McDonagh Park","LOCTNTYP":"Park","FTRNAME":"McDonagh Soccer Field","FTRLBL":" "}},{"type":"Feature","id":152,"geometry":{"type":"Point","coordinates":[-116.54355922626937,43.607225986161765]},"properties":{"OBJECTID_1":152,"OBJECTID":5818,"UNIQID":"PKPT3472","OWNER":"Nampa","MANAGER":"Nampa","STATUS":"Temporary","FTR_FUNCTN":"Amenity","FTR_TYP":"Soccer Field","LOCATION":"McDonagh Park","LOCTNTYP":"Park","FTRNAME":"McDonagh Soccer Field","FTRLBL":" "}},{"type":"Feature","id":153,"geometry":{"type":"Point","coordinates":[-116.55062526018894,43.619087313396612]},"properties":{"OBJECTID_1":153,"OBJECTID":11015,"UNIQID":"PKPT3473","OWNER":"Nampa","MANAGER":"Nampa","STATUS":"Active","FTR_FUNCTN":"Amenity","FTR_TYP":"Playground","LOCATION":"Orah Brandt Park","LOCTNTYP":"Park","FTRNAME":"Orah Brandt Playground","FTRLBL":"Orah Brandt Park Playground"}},{"type":"Feature","id":154,"geometry":{"type":"Point","coordinates":[-116.63418766084062,43.581172978320495]},"properties":{"OBJECTID_1":154,"OBJECTID":11424,"UNIQID":"PKPT3610","OWNER":"Nampa","MANAGER":"Nampa","STATUS":"Active","FTR_FUNCTN":"Amenity","FTR_TYP":"Playground","LOCATION":"Midway Sports Park","LOCTNTYP":"Park","FTRNAME":"Midway Park Playground","FTRLBL":" "}},{"type":"Feature","id":155,"geometry":{"type":"Point","coordinates":[-116.63478113045154,43.581859054881107]},"properties":{"OBJECTID_1":155,"OBJECTID":11425,"UNIQID":"PKPT3611","OWNER":"Nampa","MANAGER":"Nampa","STATUS":"Active","FTR_FUNCTN":"Amenity","FTR_TYP":"Restrooms","LOCATION":"Midway Sports Park","LOCTNTYP":"Park","FTRNAME":"Midway Park Shelter Restrooms","FTRLBL":" "}},{"type":"Feature","id":156,"geometry":{"type":"Point","coordinates":[-116.63388350556617,43.58107387608316]},"properties":{"OBJECTID_1":156,"OBJECTID":11426,"UNIQID":"PKPT3612","OWNER":"Nampa","MANAGER":"Nampa","STATUS":"Active","FTR_FUNCTN":"Amenity","FTR_TYP":"Sheltered Picnic Area","LOCATION":"Midway Sports Park","LOCTNTYP":"Park","FTRNAME":"Midway Park Shelter - Playground","FTRLBL":"Midway Sports Park Shelter"}},{"type":"Feature","id":157,"geometry":{"type":"Point","coordinates":[-116.63380159342015,43.580352820500316]},"properties":{"OBJECTID_1":157,"OBJECTID":11427,"UNIQID":"PKPT3613","OWNER":"Nampa","MANAGER":"Nampa","STATUS":"Active","FTR_FUNCTN":"Amenity","FTR_TYP":"Pickle Ball Courts","LOCATION":"Midway Sports Park","LOCTNTYP":"Park","FTRNAME":"Midway Pickle Ball Courts","FTRLBL":" "}},{"type":"Feature","id":158,"geometry":{"type":"Point","coordinates":[-116.58845819417346,43.573997519042578]},"properties":{"OBJECTID_1":158,"OBJECTID":18616,"UNIQID":"PKPT6225","OWNER":"Nampa","MANAGER":"Nampa","STATUS":"Active","FTR_FUNCTN":"Amenity","FTR_TYP":"Restrooms","LOCATION":"West Park","LOCTNTYP":"Park","FTRNAME":"West Park Ball Complex Restrooms","FTRLBL":" "}},{"type":"Feature","id":159,"geometry":{"type":"Point","coordinates":[-116.54973099591528,43.618836945449047]},"properties":{"OBJECTID_1":159,"OBJECTID":23418,"UNIQID":"PKPT6894","OWNER":"Nampa","MANAGER":"Nampa","STATUS":"Proposed","FTR_FUNCTN":"Amenity","FTR_TYP":"Ampitheater","LOCATION":"Orah Brandt Park","LOCTNTYP":"Park","FTRNAME":"Orah Brandt Park Ampitheater","FTRLBL":"Ampitheater"}},{"type":"Feature","id":160,"geometry":{"type":"Point","coordinates":[-116.55084445789861,43.619248895326145]},"properties":{"OBJECTID_1":160,"OBJECTID":23419,"UNIQID":"PKPT6895","OWNER":"Nampa","MANAGER":"Nampa","STATUS":"Active","FTR_FUNCTN":"Amenity","FTR_TYP":"Sheltered Picnic Area","LOCATION":"Orah Brandt Park","LOCTNTYP":"Park","FTRNAME":"Orah Brandt Park Shelter","FTRLBL":"Orah Brandt Park Shelter"}},{"type":"Feature","id":161,"geometry":{"type":"Point","coordinates":[-116.55085360846948,43.618913392035495]},"properties":{"OBJECTID_1":161,"OBJECTID":23420,"UNIQID":"PKPT6896","OWNER":"Nampa","MANAGER":"Nampa","STATUS":"Active","FTR_FUNCTN":"Amenity","FTR_TYP":"Restrooms","LOCATION":"Orah Brandt Park","LOCTNTYP":"Park","FTRNAME":"Orah Brandt Park Restrooms","FTRLBL":" "}},{"type":"Feature","id":162,"geometry":{"type":"Point","coordinates":[-116.55873614613414,43.58508842566404]},"properties":{"OBJECTID_1":162,"OBJECTID":43827,"UNIQID":"PKPT9081","OWNER":"Nampa","MANAGER":"Nampa","STATUS":"Active","FTR_FUNCTN":"Amenity","FTR_TYP":"Playground","LOCATION":"Hunter Park","LOCTNTYP":"Park","FTRNAME":"Hunter Playground - Swings Only","FTRLBL":" "}},{"type":"Feature","id":163,"geometry":{"type":"Point","coordinates":[-116.5589548916677,43.585070357323787]},"properties":{"OBJECTID_1":163,"OBJECTID":43828,"UNIQID":"PKPT9082","OWNER":"Nampa","MANAGER":"Nampa","STATUS":"Active","FTR_FUNCTN":"Amenity","FTR_TYP":"Picnic Table","LOCATION":"Hunter Park","LOCTNTYP":"Park","FTRNAME":"Hunter Picnic Table","FTRLBL":" "}},{"type":"Feature","id":164,"geometry":{"type":"Point","coordinates":[-116.55021002789246,43.577694472931249]},"properties":{"OBJECTID_1":164,"OBJECTID":43830,"UNIQID":"PKPT9084","OWNER":"Nampa","MANAGER":"Nampa","STATUS":"Active","FTR_FUNCTN":"Amenity","FTR_TYP":"Playground","LOCATION":"Indian Creek Park","LOCTNTYP":"Park","FTRNAME":"Indian Creek Playground - Swings only","FTRLBL":" "}},{"type":"Feature","id":165,"geometry":{"type":"Point","coordinates":[-116.58383115874818,43.587851654561646]},"properties":{"OBJECTID_1":165,"OBJECTID":44649,"UNIQID":"PKPT9109","OWNER":"Nampa","MANAGER":"Nampa","STATUS":"Active","FTR_FUNCTN":"Amenity","FTR_TYP":"Picnic Table","LOCATION":"Lions Park","LOCTNTYP":"Park","FTRNAME":"Lions Picnic Table","FTRLBL":" "}},{"type":"Feature","id":166,"geometry":{"type":"Point","coordinates":[-116.58421541190427,43.588012701153446]},"properties":{"OBJECTID_1":166,"OBJECTID":44650,"UNIQID":"PKPT9110","OWNER":"Nampa","MANAGER":"Nampa","STATUS":"Active","FTR_FUNCTN":"Amenity","FTR_TYP":"Picnic Table","LOCATION":"Lions Park","LOCTNTYP":"Park","FTRNAME":"Lions Picnic Table","FTRLBL":" "}},{"type":"Feature","id":167,"geometry":{"type":"Point","coordinates":[-116.58424662821903,43.588042957421024]},"properties":{"OBJECTID_1":167,"OBJECTID":44651,"UNIQID":"PKPT9111","OWNER":"Nampa","MANAGER":"Nampa","STATUS":"Active","FTR_FUNCTN":"Amenity","FTR_TYP":"Picnic Table","LOCATION":"Lions Park","LOCTNTYP":"Park","FTRNAME":"Lions Picnic Table","FTRLBL":" "}},{"type":"Feature","id":168,"geometry":{"type":"Point","coordinates":[-116.58430194545558,43.588110189882173]},"properties":{"OBJECTID_1":168,"OBJECTID":44652,"UNIQID":"PKPT9112","OWNER":"Nampa","MANAGER":"Nampa","STATUS":"Active","FTR_FUNCTN":"Amenity","FTR_TYP":"Picnic Table","LOCATION":"Lions Park","LOCTNTYP":"Park","FTRNAME":"Lions Picnic Table","FTRLBL":" "}},{"type":"Feature","id":169,"geometry":{"type":"Point","coordinates":[-116.58420139467566,43.588231429642718]},"properties":{"OBJECTID_1":169,"OBJECTID":44653,"UNIQID":"PKPT9113","OWNER":"Nampa","MANAGER":"Nampa","STATUS":"Active","FTR_FUNCTN":"Amenity","FTR_TYP":"Picnic Table","LOCATION":"Lions Park","LOCTNTYP":"Park","FTRNAME":"Lions Picnic Table","FTRLBL":" "}},{"type":"Feature","id":170,"geometry":{"type":"Point","coordinates":[-116.54512263651385,43.587644366389696]},"properties":{"OBJECTID_1":170,"OBJECTID":45446,"UNIQID":"PKPT9186","OWNER":"Nampa","MANAGER":"Nampa","STATUS":"Active","FTR_FUNCTN":"Amenity","FTR_TYP":"Baseball Field","LOCATION":"Rodeo Park","LOCTNTYP":"Park","FTRNAME":"Rodeo Park Baseball Field","FTRLBL":" "}},{"type":"Feature","id":171,"geometry":{"type":"Point","coordinates":[-116.55043571508605,43.618777285726956]},"properties":{"OBJECTID_1":171,"OBJECTID":57434,"UNIQID":"PKPT9394","OWNER":"Nampa","MANAGER":"Nampa","STATUS":"Active","FTR_FUNCTN":"Amenity","FTR_TYP":"Splash Pad","LOCATION":"Orah Brandt Park","LOCTNTYP":"Park","FTRNAME":"Orah Brandt Splash Pad","FTRLBL":" "}},{"type":"Feature","id":172,"geometry":{"type":"Point","coordinates":[-116.63459483392799,43.581474667364965]},"properties":{"OBJECTID_1":172,"OBJECTID":57435,"UNIQID":"PKPT9395","OWNER":"Nampa","MANAGER":"Nampa","STATUS":"Active","FTR_FUNCTN":"Amenity","FTR_TYP":"Splash Pad","LOCATION":"Midway Sports Park","LOCTNTYP":"Park","FTRNAME":"Midway Splash Pad","FTRLBL":" "}},{"type":"Feature","id":173,"geometry":{"type":"Point","coordinates":[-116.63488456991115,43.582378366578908]},"properties":{"OBJECTID_1":173,"OBJECTID":57436,"UNIQID":"PKPT9396","OWNER":"Nampa","MANAGER":"Nampa","STATUS":"Pending","FTR_FUNCTN":"Amenity","FTR_TYP":"Basketball Court","LOCATION":"Midway Sports Park","LOCTNTYP":"Park","FTRNAME":"Midway Basketball Court","FTRLBL":" "}},{"type":"Feature","id":174,"geometry":{"type":"Point","coordinates":[-116.62211121029138,43.583830089203779]},"properties":{"OBJECTID_1":174,"OBJECTID":67067,"UNIQID":"PKPT9531","OWNER":"Nampa","MANAGER":"Nampa","STATUS":"Active","FTR_FUNCTN":"Amenity","FTR_TYP":"Restrooms","LOCATION":"Huckleberry Dog Park","LOCTNTYP":"Park","FTRNAME":"Huckleberry Dog Park Restrooms","FTRLBL":" "}},{"type":"Feature","id":175,"geometry":{"type":"Point","coordinates":[-116.55062894087577,43.619084678208459]},"properties":{"OBJECTID_1":175,"OBJECTID":79899,"UNIQID":"PKPT9968","OWNER":"Nampa","MANAGER":"Nampa","STATUS":"Active","FTR_FUNCTN":"Amenity","FTR_TYP":"Playground","LOCATION":"Orah Brandt Park","LOCTNTYP":"Park","FTRNAME":"Playground","FTRLBL":" "}},{"type":"Feature","id":176,"geometry":{"type":"Point","coordinates":[-116.55043138677883,43.61878256185652]},"properties":{"OBJECTID_1":176,"OBJECTID":79900,"UNIQID":"PKPT9969","OWNER":"Nampa","MANAGER":"Nampa","STATUS":"Active","FTR_FUNCTN":"Amenity","FTR_TYP":"Splash Pad","LOCATION":"Orah Brandt Park","LOCTNTYP":"Park","FTRNAME":"Splash Pad","FTRLBL":" "}},{"type":"Feature","id":177,"geometry":{"type":"Point","coordinates":[-116.55085322670557,43.619241475521996]},"properties":{"OBJECTID_1":177,"OBJECTID":79901,"UNIQID":"PKPT9970","OWNER":"Nampa","MANAGER":"Nampa","STATUS":"Active","FTR_FUNCTN":"Amenity","FTR_TYP":"Sheltered Picnic Area","LOCATION":"Orah Brandt Park","LOCTNTYP":"Park","FTRNAME":"Sheltered Picnic Area","FTRLBL":" "}},{"type":"Feature","id":178,"geometry":{"type":"Point","coordinates":[-116.55182445485686,43.618748111816018]},"properties":{"OBJECTID_1":178,"OBJECTID":81100,"UNIQID":"PKPT9977","OWNER":"Nampa","MANAGER":"Nampa","STATUS":"Active","FTR_FUNCTN":"Amenity","FTR_TYP":"Basketball Court","LOCATION":"Orah Brandt Park","LOCTNTYP":"Park","FTRNAME":"Basketball Court","FTRLBL":" "}}]}