{"type":"FeatureCollection","features":[{"type":"Feature","id":0,"geometry":{"type":"Polygon","coordinates":[[[-116.54911531247953,43.619501217438589],[-116.55295492295339,43.619497618473389],[-116.55298931315527,43.619495293160071],[-116.55301339981787,43.619488574786324],[-116.55303697736987,43.619474417901976],[-116.5530555836517,43.619456127542058],[-116.55306636806121,43.619435213411329],[-116.55306979860963,43.619415839718052],[-116.55306933901247,43.619381310353901],[-116.55306326299724,43.617785722896521],[-116.55305800936593,43.617760455997292],[-116.55304379358493,43.617739122516035],[-116.55302392921571,43.617724376990758],[-116.55300165062381,43.617712923909956],[-116.55297779248944,43.617705946450421],[-116.55295113260004,43.617704049967031],[-116.55158129036808,43.617713376500497],[-116.55147964757244,43.617711757006738],[-116.55138190506061,43.617707440363056],[-116.55127985359128,43.617699582214861],[-116.55120533934334,43.617691769504262],[-116.5511170075057,43.617680242527037],[-116.55102107617637,43.617664243895078],[-116.55093366797767,43.617648185466173],[-116.5508468709133,43.617628788692677],[-116.55075444481645,43.617605144974426],[-116.55065770668902,43.617577720329841],[-116.55058592743643,43.61755369333406],[-116.55048679092562,43.617518426506997],[-116.55039089768465,43.617480516673858],[-116.5503005388676,43.617439711074553],[-116.55022037250413,43.617401214837933],[-116.55014709980991,43.617363384977438],[-116.55008533019846,43.617327856243385],[-116.55002120830127,43.617288056728221],[-116.54995739076379,43.617246350420309],[-116.54991008657936,43.617214054358996],[-116.54986042943086,43.617177249903477],[-116.5497868687512,43.61711774904721],[-116.54971554884661,43.617054184685458],[-116.54965282151399,43.616995799695225],[-116.54958275699629,43.616927940157325],[-116.5495250306848,43.616875949580376],[-116.54945046626109,43.616814789426016],[-116.54939446745014,43.616769455594493],[-116.54930840866167,43.616706707826516],[-116.54922438351177,43.616648947670271],[-116.54913511976625,43.616591701129863],[-116.54905383100044,43.616542495238456],[-116.54895279009426,43.616486996974039],[-116.54888742663454,43.616452206488731],[-116.54876306045374,43.616392823279973],[-116.54868920075992,43.616359997573937],[-116.54854451064652,43.616300517594645],[-116.54845754926167,43.616268497944588],[-116.54834493165561,43.616229750885154],[-116.54825869509324,43.616202964645346],[-116.54814517480165,43.616170416429725],[-116.54805965358169,43.616148150784028],[-116.54796430644761,43.616126429820433],[-116.54788179473741,43.616108667872858],[-116.54779767058753,43.616092822645804],[-116.54769451713679,43.616075680775793],[-116.547605481384,43.616060345837312],[-116.54753415301022,43.616045363449047],[-116.54743683587523,43.616023417260415],[-116.54735133085229,43.616002341812731],[-116.54726973072228,43.615979095911534],[-116.54712260407409,43.615933443266172],[-116.54709366390939,43.61592626238415],[-116.54706408292374,43.61592027680485],[-116.54702828524717,43.61591504924754],[-116.54699154362326,43.615912923729077],[-116.54695680378413,43.615913403555354],[-116.54692438772743,43.615916011226822],[-116.54689035352852,43.615920297167932],[-116.54685080387642,43.61592890875653],[-116.54681487603081,43.615938685028034],[-116.54677965066026,43.615952028917746],[-116.5467516488241,43.615966274763565],[-116.54673118500497,43.615980468965638],[-116.54671043500321,43.615997760627486],[-116.54663315611526,43.616082316106358],[-116.54740607320777,43.616446737158014],[-116.54760702402589,43.617523885891693],[-116.54761589228961,43.617576275951585],[-116.54818532886749,43.617517018575015],[-116.548243296696,43.617513041282223],[-116.54829541252718,43.617512677351478],[-116.54834459763052,43.617513762334383],[-116.54838888355148,43.617516311782985],[-116.54842827397361,43.617520322976873],[-116.54846866445807,43.617525756541845],[-116.54851105180335,43.617533320198973],[-116.54855346626947,43.617543025905604],[-116.54859688328749,43.617554153962608],[-116.54863736961094,43.617566731847866],[-116.54867888560683,43.617582874149385],[-116.54872634940925,43.617602547402633],[-116.5487688976046,43.617622254983921],[-116.54880753024354,43.617643418380368],[-116.54883923273898,43.61766105856784],[-116.54886703038018,43.617680870089856],[-116.54889883695714,43.617706368367472],[-116.5489306530113,43.617732580354669],[-116.54895957623165,43.617763100661065],[-116.54898749691779,43.617792197697071],[-116.54901148437658,43.617821323117994],[-116.54903352475905,43.617851890613174],[-116.54905262375783,43.617883194249167],[-116.54906879203614,43.617915945937526],[-116.54908498872454,43.61795084147959],[-116.54909821685543,43.617984328400645],[-116.54910654702157,43.61801927892882],[-116.54911298562965,43.618059958358174],[-116.54911753515552,43.618106366671562],[-116.54911531247953,43.619501217438589]]]},"properties":{"FID":0,"OBJECTID":5303,"UNIQID":"PKMA199","OWNER":"Nampa","MANAGER":"Nampa","STATUS":"Active","CLASS":"Community","LOCTNTYP":"Park","FTRNAME":"Orah Brandt Park"}},{"type":"Feature","id":1,"geometry":{"type":"Polygon","coordinates":[[[-116.53308638096742,43.615956197140171],[-116.53309216464066,43.614198800101931],[-116.52946320714298,43.614199965086947],[-116.52947076831256,43.612384077286208],[-116.52820921520171,43.61238431033464],[-116.52820941700888,43.61243118298696],[-116.5282106648373,43.61289397402011],[-116.52729664554947,43.612895626369536],[-116.52730519389227,43.61294114791135],[-116.52731823846571,43.612984301298596],[-116.52733418213138,43.613024872363155],[-116.52735189018027,43.613061038900511],[-116.52737224880889,43.613099277460996],[-116.52740146999078,43.61314212010749],[-116.52742906951978,43.613178227465696],[-116.52746264687786,43.613217921596672],[-116.52750004749682,43.61325426111511],[-116.52754294468822,43.613291928698658],[-116.52758110640818,43.613322719248657],[-116.52821151480815,43.613323313414767],[-116.52819221403395,43.615188714692536],[-116.52818774987323,43.615962786264816],[-116.53308638096742,43.615956197140171]]]},"properties":{"FID":1,"OBJECTID":5703,"UNIQID":"PKMA200","OWNER":"Nampa","MANAGER":"Nampa","STATUS":"Active","CLASS":"Community","LOCTNTYP":"Park","FTRNAME":"Optimist Park"}},{"type":"Feature","id":2,"geometry":{"type":"Polygon","coordinates":[[[-116.54749032126838,43.612234160180158],[-116.54751258028351,43.612244365135176],[-116.54753576270724,43.612249919087027],[-116.54756037075252,43.612251890559776],[-116.54933904265702,43.612255266781659],[-116.54936775238488,43.612254984117939],[-116.54939377428504,43.612252301652973],[-116.54941776884439,43.612244989703228],[-116.54943388339436,43.612236660827094],[-116.54945573105421,43.612215788456759],[-116.54946095943762,43.612202176465892],[-116.54946321830603,43.612187157671045],[-116.54946099694736,43.61216788209483],[-116.54945676121353,43.612145048978029],[-116.54945003476757,43.61211973277986],[-116.54944036246212,43.612094794525341],[-116.54940352836341,43.612023606049817],[-116.54938491812716,43.611991942579081],[-116.5493718993705,43.611974171875438],[-116.54935591708232,43.611955350764589],[-116.54933702328871,43.61193940695226],[-116.54931317401912,43.611920640844041],[-116.54929184159107,43.611906143446831],[-116.5492655867933,43.611891323118925],[-116.54923837337756,43.611878296201304],[-116.54920621990756,43.611863517100254],[-116.54820746092156,43.611290352332773],[-116.5481910338285,43.611305766169373],[-116.54795603515532,43.611523802631794],[-116.54717606990165,43.611076561150213],[-116.54600043150579,43.610402300430188],[-116.54583385838524,43.610225986760327],[-116.54564557032268,43.610120985636172],[-116.54535746065582,43.610033825818981],[-116.54515962018043,43.609920143999091],[-116.54538521142887,43.609704237225927],[-116.54540211969346,43.609688935654027],[-116.54501529877953,43.609466273564472],[-116.54499715626417,43.609457468861478],[-116.54489845950602,43.609460536881862],[-116.5448797569935,43.609471383618462],[-116.54486801302563,43.609481884031702],[-116.54428915349112,43.610014312493163],[-116.54427459005447,43.610028404964396],[-116.54426448854866,43.610039191838624],[-116.54425928104399,43.610048158894067],[-116.54425651538129,43.610055918140368],[-116.54425705340959,43.61006573818338],[-116.54425964927209,43.610076139800327],[-116.54426672665504,43.610084723564732],[-116.54428080824569,43.610096236220755],[-116.54430476030231,43.610110656049798],[-116.54433903328163,43.610130959273754],[-116.54447443713376,43.610208608567945],[-116.54465692827794,43.610315105592754],[-116.54468298414261,43.610333678218261],[-116.54470325011332,43.610348124487501],[-116.5447218564896,43.610361093511699],[-116.5447292591779,43.610356273274888],[-116.54487782102838,43.610168852264017],[-116.54499172871853,43.610216757819792],[-116.54508187406206,43.610323985444538],[-116.5452847016463,43.610457864426429],[-116.54556089013286,43.610499839144801],[-116.54598605635246,43.610743798937797],[-116.54636836535906,43.610962732065225],[-116.54682783516716,43.611226454625402],[-116.54745846776198,43.611588147222648],[-116.54773265274406,43.611835210347095],[-116.54740844903193,43.611946356549488],[-116.54738896969482,43.611952907495358],[-116.54740787707752,43.611985388317478],[-116.54742253922578,43.612016007622955],[-116.54743482403521,43.612052716537995],[-116.54744461822766,43.612086942325988],[-116.54745146184216,43.612121189595982],[-116.54745485611721,43.612154745342011],[-116.54745823971467,43.612187586476594],[-116.54746288623423,43.612204344674595],[-116.54747441973629,43.612221411271022],[-116.54749032126838,43.612234160180158]]]},"properties":{"FID":2,"OBJECTID":5704,"UNIQID":"PKMA201","OWNER":"Nampa","MANAGER":"Nampa","STATUS":"Active","CLASS":"Neighborhood","LOCTNTYP":"Park","FTRNAME":"Sunset Oaks Park"}},{"type":"Feature","id":3,"geometry":{"type":"Polygon","coordinates":[[[-116.54263577818126,43.608647524613048],[-116.54317219566876,43.608955023673253],[-116.54317158009115,43.608692505919947],[-116.54378985423133,43.608692672641368],[-116.54378003371829,43.606679690253166],[-116.54377593909841,43.60584034920668],[-116.54393775493371,43.605752326283202],[-116.54501863206023,43.605164347637434],[-116.54507463176516,43.605104461868088],[-116.5449073532677,43.605105023899256],[-116.54479870814512,43.605164333207995],[-116.54372475232333,43.605748762996406],[-116.5429181018073,43.606187714722985],[-116.54168298641119,43.606859388777558],[-116.54104054565124,43.607207757759028],[-116.5411000984333,43.607214376401878],[-116.54114553785999,43.607224350181859],[-116.54119483225034,43.607240470208652],[-116.54124041431629,43.607261417088871],[-116.54128704586968,43.607290415359408],[-116.54131853362323,43.607316260946703],[-116.54142484890559,43.607430906293295],[-116.54179728743033,43.60783456157646],[-116.54190548329325,43.607951441009902],[-116.54263577818126,43.608647524613048]]]},"properties":{"FID":3,"OBJECTID":5705,"UNIQID":"PKMA202","OWNER":"Nampa","MANAGER":"Nampa","STATUS":"Active","CLASS":"Community","LOCTNTYP":"Park","FTRNAME":"McDonagh Park"}},{"type":"Feature","id":4,"geometry":{"type":"Polygon","coordinates":[[[-116.54400445523005,43.587884029427165],[-116.54379126432865,43.587901387909859],[-116.5434024558061,43.587912659646172],[-116.54341186568921,43.588252778933537],[-116.54341049569479,43.588598156758522],[-116.54340883032725,43.589018240467162],[-116.5434055255529,43.589851235525671],[-116.54340222433409,43.590683552656195],[-116.54402315067723,43.590691027651104],[-116.54484099529807,43.590688002276615],[-116.54528946705273,43.59068634053223],[-116.54583984034966,43.591061633630304],[-116.54586609066415,43.591079689836299],[-116.54652059549051,43.590574113346612],[-116.54650571137691,43.590563500326716],[-116.54665650156373,43.590444562945848],[-116.54668075952728,43.590420577853365],[-116.54669337717013,43.590383576359102],[-116.54668626010614,43.590340758159414],[-116.54666807462274,43.590309687035621],[-116.54664288361779,43.590281521680723],[-116.54656019250601,43.590222559130389],[-116.5465269426256,43.590185876342282],[-116.54650263425967,43.590128849938282],[-116.54649883298289,43.590084285809588],[-116.54486170710469,43.590091052093065],[-116.54485312274497,43.588986440160177],[-116.54484731827287,43.588239448242454],[-116.54484537657973,43.587989610558637],[-116.54450786330936,43.587771866829947],[-116.54447344717912,43.587790738324337],[-116.54443534267956,43.587808150255519],[-116.54438345914404,43.58782422944514],[-116.54432857102594,43.587836042256114],[-116.54427169782498,43.587846440355499],[-116.5442096951391,43.587857001878461],[-116.54414100602182,43.587865814993748],[-116.54408212231671,43.587872773236597],[-116.54400445523005,43.587884029427165]]]},"properties":{"FID":4,"OBJECTID":5706,"UNIQID":"PKMA203","OWNER":"Nampa","MANAGER":"Nampa","STATUS":"Active","CLASS":"Community","LOCTNTYP":"Park","FTRNAME":"Stampede Park"}},{"type":"Feature","id":5,"geometry":{"type":"Polygon","coordinates":[[[-116.54450786330936,43.587771866829947],[-116.54484537657973,43.587989610558637],[-116.54555921489008,43.587986695586778],[-116.54619320140215,43.587984101893916],[-116.54618354516725,43.587466584233553],[-116.54612877460364,43.587195171534169],[-116.54569974833069,43.58684181413571],[-116.54569961052206,43.586825148624584],[-116.54506329098004,43.586823428059155],[-116.54467319597019,43.586823714595447],[-116.54463619294179,43.586852324431391],[-116.54464052428683,43.587580095893486],[-116.54462760320276,43.587628912354688],[-116.5446103910342,43.587665470315599],[-116.5445881904421,43.587696346336884],[-116.54456203032692,43.587725106707936],[-116.54453387572262,43.587751737768862],[-116.54450786330936,43.587771866829947]]]},"properties":{"FID":5,"OBJECTID":5707,"UNIQID":"PKMA204","OWNER":"Nampa","MANAGER":"Nampa","STATUS":"Active","CLASS":"Community","LOCTNTYP":"Park","FTRNAME":"Rodeo Park"}},{"type":"Feature","id":6,"geometry":{"type":"Polygon","coordinates":[[[-116.54337419049986,43.584274196445946],[-116.54338088008852,43.585166229585241],[-116.54338672065994,43.585944850770858],[-116.54339128314359,43.58655317415559],[-116.54339173364437,43.586587472492532],[-116.54369611588616,43.586560233921752],[-116.54381659446646,43.586553237038608],[-116.54420033234429,43.586553292827965],[-116.54429242452105,43.586538509552831],[-116.54434337084083,43.586526009457963],[-116.54437463279895,43.586511502956363],[-116.54439602030517,43.586493492518976],[-116.54441528184974,43.586463351641328],[-116.54443158462817,43.58643251663252],[-116.54444382585622,43.586391706902802],[-116.54445783027803,43.5860365199283],[-116.54445467701636,43.585497834715987],[-116.54445236695975,43.585172768998767],[-116.54445468550793,43.585124884025412],[-116.54445700529114,43.585076999043039],[-116.54445943656827,43.585037685953083],[-116.54446572382223,43.584992631254067],[-116.54447489456402,43.584942554592395],[-116.54448305278932,43.584890342699325],[-116.54449233625341,43.584848838820093],[-116.54451680737492,43.584766505614127],[-116.54454341373706,43.584697017463988],[-116.54456725055203,43.58464112314779],[-116.5445690569781,43.584628964478902],[-116.54456295836287,43.584617840974978],[-116.54460550273966,43.584537003232583],[-116.54466725739604,43.584438760587005],[-116.54473742604569,43.584343550399396],[-116.54481572761119,43.584251751755673],[-116.54490184990225,43.584163731355467],[-116.54499544836615,43.584079842621172],[-116.54510368575458,43.583999202213548],[-116.54600790590966,43.58330225987504],[-116.54625145054456,43.583088129206303],[-116.54626038394045,43.583069967524288],[-116.5462562394971,43.583053801568752],[-116.54622862202429,43.583046372672783],[-116.543822218266,43.582869713992508],[-116.54382192144526,43.582918929701442],[-116.5438230132993,43.583289520902319],[-116.54336679045311,43.583287493379203],[-116.54337419049986,43.584274196445946]]]},"properties":{"FID":6,"OBJECTID":5708,"UNIQID":"PKMA205","OWNER":"Nampa","MANAGER":"Nampa","STATUS":"Active","CLASS":"Community","LOCTNTYP":"Park","FTRNAME":"Maple Grove Park"}},{"type":"Feature","id":7,"geometry":{"type":"Polygon","coordinates":[[[-116.54469404564914,43.586509283007196],[-116.54471729134853,43.586532937472583],[-116.54475357932563,43.5865517369717],[-116.54479687773774,43.586553251478044],[-116.5450408648711,43.586553194927575],[-116.54565440330364,43.586553051625081],[-116.54632637549565,43.586552890456829],[-116.5470177343564,43.586552721595758],[-116.5479140566209,43.586552495332747],[-116.54881014136375,43.586549572366458],[-116.54968646601118,43.586546331446471],[-116.55035867195924,43.586543728137663],[-116.55080227522646,43.586541916849882],[-116.55080670065539,43.58654189845155],[-116.55099641230377,43.586541122938854],[-116.55109306466419,43.586539784108737],[-116.55117461836666,43.58653778411685],[-116.55122668847125,43.58653598981045],[-116.55127676391295,43.586532066294893],[-116.55132485540541,43.586526728186527],[-116.55137390156251,43.586519239299477],[-116.55143763262478,43.586507361111615],[-116.5515120983811,43.586489691916356],[-116.55158748084877,43.586467015223569],[-116.55165989494709,43.586442929919045],[-116.55172344571639,43.586417478249849],[-116.55177519329635,43.586391394638078],[-116.55182593874592,43.58636388865402],[-116.55190100796068,43.586317636422294],[-116.55198369287407,43.586252755107282],[-116.55210926983044,43.586161136509062],[-116.55209333327498,43.586150708914964],[-116.55170864366677,43.585888139865474],[-116.55165371151566,43.585850394543193],[-116.55178230859828,43.585750961050792],[-116.55140140362803,43.585488878366633],[-116.55135028205976,43.58545504237226],[-116.55087287014295,43.585821336431806],[-116.55078948522663,43.585858120358303],[-116.55067892117977,43.585937881404476],[-116.55060003221583,43.585884041041169],[-116.55068157753516,43.585824581916391],[-116.55071156226836,43.585783739051344],[-116.5509757154461,43.585571982481078],[-116.55092273388226,43.585538873116541],[-116.55053427565031,43.585276328283328],[-116.5509228252439,43.58497644649561],[-116.5502683951936,43.584532115737709],[-116.55030663040081,43.584498681644568],[-116.55028977782152,43.584463075970937],[-116.54738421911364,43.582511454535286],[-116.54732020104328,43.582526190327513],[-116.54662361524615,43.583066419857722],[-116.54660421142052,43.583085606847114],[-116.54659658806123,43.583103760327546],[-116.54659166113217,43.583127609832097],[-116.54658538535662,43.58314861087829],[-116.54657512832887,43.583165829489467],[-116.54619882100954,43.583448521804343],[-116.54613734743162,43.583457523497934],[-116.54544846449436,43.583987213045376],[-116.54525127129803,43.584139099027446],[-116.54517734568549,43.584197722700551],[-116.54511257952463,43.584255331202002],[-116.54502077197391,43.584349325736504],[-116.54489586060198,43.58451690322169],[-116.54485464285025,43.584571489078002],[-116.54479714259048,43.584683345244308],[-116.54475764940378,43.584769356391156],[-116.54475393132182,43.584785576156854],[-116.5447554543302,43.584801760386505],[-116.54476234497686,43.584827433186739],[-116.54476658941145,43.584851219745964],[-116.54476549125116,43.58486742129778],[-116.54475919084915,43.584886517771992],[-116.54474794888235,43.58492851144721],[-116.54473697006819,43.584990508283298],[-116.54472726359151,43.585049637516661],[-116.54472429739599,43.585123010071676],[-116.54472398872788,43.585199222007134],[-116.54472519763772,43.58539068994142],[-116.54472412577616,43.585408797745835],[-116.54471908390828,43.585424074392705],[-116.54469216728761,43.585469987197307],[-116.54468844915949,43.585486207859397],[-116.54469473993758,43.585964379230575],[-116.54469404564914,43.586509283007196]]]},"properties":{"FID":7,"OBJECTID":5709,"UNIQID":"PKMA206","OWNER":"Nampa","MANAGER":"Nampa","STATUS":"Active","CLASS":"Large Urban","LOCTNTYP":"Park","FTRNAME":"Lakeview Park"}},{"type":"Feature","id":8,"geometry":{"type":"Polygon","coordinates":[[[-116.55946699339498,43.585029921446157],[-116.55924682291725,43.584877545753187],[-116.55911752102867,43.58498062098743],[-116.55894073386901,43.584861238184835],[-116.55815661944656,43.58546787152153],[-116.55854682502833,43.585737204505421],[-116.55946699339498,43.585029921446157]]]},"properties":{"FID":8,"OBJECTID":5710,"UNIQID":"PKMA207","OWNER":"Nampa","MANAGER":"Nampa","STATUS":"Active","CLASS":"Neighborhood","LOCTNTYP":"Park","FTRNAME":"Hunter Park"}},{"type":"Feature","id":9,"geometry":{"type":"Polygon","coordinates":[[[-116.55336012911189,43.580871780816288],[-116.55333687611036,43.580905771351816],[-116.55332218156973,43.580923106366455],[-116.55320537820849,43.580986475000792],[-116.55308022931595,43.581082451113822],[-116.5530808643956,43.58109995474306],[-116.55309824892319,43.581111814918046],[-116.55348386402929,43.581374886984726],[-116.55374160241139,43.581174340266294],[-116.5537521109261,43.581167082586141],[-116.55338637187522,43.580864575520337],[-116.55336012911189,43.580871780816288]]]},"properties":{"FID":9,"OBJECTID":5711,"UNIQID":"PKMA208","OWNER":"Nampa","MANAGER":"Nampa","STATUS":"Active","CLASS":"Neighborhood","LOCTNTYP":"Park","FTRNAME":"Starr Park"}},{"type":"Feature","id":10,"geometry":{"type":"Polygon","coordinates":[[[-116.549109745698,43.576592502376869],[-116.54899022227779,43.5766861043668],[-116.54908538247558,43.576771130045913],[-116.54924113472362,43.576910295120499],[-116.54938672530123,43.577040378682362],[-116.54956233252264,43.577203071153377],[-116.54966033411415,43.57734054587354],[-116.54967295493562,43.577470454645187],[-116.54968970235858,43.57764282799041],[-116.54973579297948,43.577731083011017],[-116.54982736105435,43.577906417233685],[-116.54990907939626,43.577994232088194],[-116.55004482466717,43.578125148768052],[-116.55016645763571,43.578242454437479],[-116.55031466274586,43.578385385600136],[-116.55034765286661,43.57843063735892],[-116.55106609962598,43.57788566261312],[-116.55107959375968,43.577875660511722],[-116.55107942959087,43.577863277905486],[-116.55106907976615,43.577853442883558],[-116.54924702453469,43.576612933007887],[-116.54916312660778,43.576550697913291],[-116.549109745698,43.576592502376869]]]},"properties":{"FID":10,"OBJECTID":5712,"UNIQID":"PKMA209","OWNER":"Nampa","MANAGER":"Nampa","STATUS":"Active","CLASS":"Neighborhood","LOCTNTYP":"Park","FTRNAME":"Indian Creek Park"}},{"type":"Feature","id":11,"geometry":{"type":"Polygon","coordinates":[[[-116.55694475778331,43.578134728645942],[-116.55777493254952,43.578694377966016],[-116.55806997282784,43.578463207830495],[-116.5578624298941,43.578323382107293],[-116.55792684906626,43.578272685257339],[-116.55730422503872,43.577853033294005],[-116.55694475778331,43.578134728645942]]]},"properties":{"FID":11,"OBJECTID":5713,"UNIQID":"PKMA210","OWNER":"Nampa","MANAGER":"Nampa","STATUS":"Active","CLASS":"Community","LOCTNTYP":"Park","FTRNAME":"Lloyd Square"}},{"type":"Feature","id":12,"geometry":{"type":"Polygon","coordinates":[[[-116.55244841215763,43.56937517301094],[-116.5524372790658,43.569426810610217],[-116.55326919793734,43.569996720175254],[-116.55329888426172,43.570007252650065],[-116.55332547435225,43.570007065809484],[-116.55336379522734,43.570000351710711],[-116.55415643238297,43.569393247847884],[-116.55418242074705,43.569347950405756],[-116.55492126034785,43.568775322237819],[-116.55501881257445,43.568699714322769],[-116.55337594983541,43.568691935562896],[-116.55334055591238,43.568696481425889],[-116.55330533204092,43.56871391572318],[-116.55244841215763,43.56937517301094]]]},"properties":{"FID":12,"OBJECTID":5714,"UNIQID":"PKMA211","OWNER":"Nampa","MANAGER":"Nampa","STATUS":"Active","CLASS":"Neighborhood","LOCTNTYP":"Park","FTRNAME":"East Side Park"}},{"type":"Feature","id":13,"geometry":{"type":"Polygon","coordinates":[[[-116.53737719602586,43.562155533065109],[-116.53679336665341,43.56151249259235],[-116.53593421515023,43.561543395640328],[-116.53567089924965,43.561545342340018],[-116.53566295576726,43.561645209874676],[-116.53547299223911,43.561644133478602],[-116.535450724763,43.561946745180521],[-116.53543159526434,43.562049878654001],[-116.53539360584593,43.56215076088278],[-116.53535207069721,43.562230828875173],[-116.53531354742765,43.562290632559588],[-116.53524587695783,43.562375642548517],[-116.53473113009021,43.562891095255644],[-116.5356325669264,43.563506967761818],[-116.53564966264737,43.563493928220687],[-116.53597794018079,43.563239838359053],[-116.5364405634066,43.562881350666181],[-116.53696712845502,43.562473307037301],[-116.53737719602586,43.562155533065109]]]},"properties":{"FID":13,"OBJECTID":5715,"UNIQID":"PKMA212","OWNER":"Nampa","MANAGER":"Nampa","STATUS":"Active","CLASS":"Community","LOCTNTYP":"Park","FTRNAME":"Amity Dog Park"}},{"type":"Feature","id":14,"geometry":{"type":"Polygon","coordinates":[[[-116.52360025866341,43.541397406334475],[-116.52361713495087,43.541405032264805],[-116.52363970518751,43.541408365700093],[-116.52459543674331,43.541414226094012],[-116.52464412945737,43.541410813274894],[-116.52470119875728,43.541399636855203],[-116.52475393046984,43.541380782081141],[-116.52480856569392,43.541344958839147],[-116.52528001871745,43.540930200450241],[-116.52535526714659,43.540849535443641],[-116.52543819312604,43.540731214034373],[-116.52540754228816,43.540713143199881],[-116.52487071253582,43.540392355584508],[-116.52447450595768,43.540155321345857],[-116.52407829971676,43.539918456742313],[-116.52368210028354,43.539681590707474],[-116.52328590051196,43.53944455136692],[-116.52287328186922,43.539206336264456],[-116.52269589570547,43.5390925630102],[-116.52187008156933,43.538580681494253],[-116.52073232794852,43.537875359772265],[-116.52056840138978,43.537956656399324],[-116.52021948983896,43.538124253261394],[-116.52022941620974,43.538153565393806],[-116.52023234838565,43.538183678045158],[-116.52022820220218,43.538213715066405],[-116.52021709892756,43.538242803423984],[-116.52019935934163,43.538270093942216],[-116.52017550168691,43.538294794622253],[-116.52014622082018,43.538316185184442],[-116.52011236628719,43.538333644220366],[-116.52007492641089,43.538346662802311],[-116.52003498891794,43.538354861851353],[-116.51999371756865,43.538358003096484],[-116.51995231139634,43.538355994750191],[-116.51991197877057,43.538348895283868],[-116.51983185911295,43.538525102136582],[-116.51953341970209,43.538782091748665],[-116.51948398347837,43.538824092820114],[-116.51919801088428,43.5390825413429],[-116.51967207911864,43.539083464414325],[-116.52070381163858,43.539086463089845],[-116.52106732676508,43.539366768353752],[-116.52134920318298,43.539585724758723],[-116.52180533527617,43.539939138724272],[-116.52213608453869,43.540071683014155],[-116.52259952263047,43.540258030900496],[-116.52288383472391,43.540371852893301],[-116.52288123378608,43.540758713823202],[-116.52287793005684,43.541238175634923],[-116.52319475172742,43.541239290970644],[-116.52328370464348,43.541335976931585],[-116.52331041013669,43.541325273908456],[-116.52332215015387,43.5413216795342],[-116.52333027293652,43.541319602923714],[-116.52334471258432,43.541316468249782],[-116.52335882675112,43.541314200790197],[-116.52338048742617,43.541312110010679],[-116.52340593823467,43.541311766822474],[-116.52342532323118,43.54131334231198],[-116.52344842882584,43.541316452534417],[-116.52347318119507,43.541322549907946],[-116.52349176425935,43.541328471185913],[-116.52351167674666,43.541337236844036],[-116.52352724235057,43.541345421628165],[-116.52354560476782,43.541357891856649],[-116.52356544693419,43.541373446679465],[-116.52357912270583,43.541379956520032],[-116.52360025866341,43.541397406334475]]]},"properties":{"FID":14,"OBJECTID":5716,"UNIQID":"PKMA213","OWNER":"Nampa","MANAGER":"Nampa","STATUS":"Active","CLASS":"Neighborhood","LOCTNTYP":"Park","FTRNAME":"Osborne Park"}},{"type":"Feature","id":15,"geometry":{"type":"Polygon","coordinates":[[[-116.5407470341685,43.546787221446998],[-116.54075386750665,43.546809084858097],[-116.54082271220652,43.546865766165382],[-116.54085284353846,43.546866510062635],[-116.54182728893593,43.546871198542817],[-116.54181980506354,43.546845613213172],[-116.54164515966524,43.546255175026566],[-116.54143897415416,43.545558086513289],[-116.54098726905443,43.545627572890901],[-116.54096763214245,43.545629206545946],[-116.54095645670681,43.545675962194082],[-116.54095030722516,43.545706489042665],[-116.54094023039089,43.545737043060981],[-116.54093138668527,43.545761871896445],[-116.54077422023528,43.546262135831739],[-116.54076433000854,43.546306977916721],[-116.54075572275076,43.546349905576648],[-116.54075244163666,43.54639946447233],[-116.5407470341685,43.546787221446998]]]},"properties":{"FID":15,"OBJECTID":5717,"UNIQID":"PKMA214","OWNER":"Nampa","MANAGER":"Nampa","STATUS":"Active","CLASS":"Neighborhood","LOCTNTYP":"Park","FTRNAME":"Maplewood Park"}},{"type":"Feature","id":16,"geometry":{"type":"Polygon","coordinates":[[[-116.55988264811849,43.546917656145389],[-116.55988422615734,43.546593634940841],[-116.55988444245745,43.54658529741684],[-116.55988728339972,43.546577418362503],[-116.55989275340188,43.546570235377466],[-116.55990215520363,43.546563262170181],[-116.55991450953317,43.54655674420826],[-116.55992622524018,43.546551421625153],[-116.56002728106812,43.54651831672966],[-116.56003932465789,43.546512991811845],[-116.56004742564041,43.546506742502821],[-116.56005289879919,43.546499797118827],[-116.56005834324615,43.54649070785716],[-116.56006019975385,43.546482598142418],[-116.56006124145092,43.546315880822696],[-116.56040784852102,43.546317237323805],[-116.56044874809088,43.543139372743148],[-116.56043427688282,43.543089884201841],[-116.5604007475421,43.543034880708099],[-116.56036047518278,43.542991851568281],[-116.56031430539029,43.54295953691738],[-116.56024315479688,43.54293053710267],[-116.56018775324583,43.542917747486364],[-116.56013028574549,43.542911832285242],[-116.55968527036812,43.542909286161844],[-116.55872051335697,43.542903761407146],[-116.55788709416561,43.542895435453403],[-116.55749738128884,43.542893652962022],[-116.55695223543437,43.542897502026342],[-116.55689945541523,43.542914398922903],[-116.55695282316046,43.542941563178694],[-116.55716482490571,43.542940066623977],[-116.55716129442501,43.543243043519645],[-116.55716651199548,43.543634089228462],[-116.55714886816919,43.544014279765506],[-116.55730074097035,43.54404625709244],[-116.55738535240056,43.544144807626168],[-116.55754722427729,43.544358483894605],[-116.55764800955862,43.544534034913255],[-116.5578092214884,43.544698142347137],[-116.55755352731126,43.544805702718676],[-116.55754786601717,43.545812732743435],[-116.55754155891192,43.54691134964802],[-116.55898169427765,43.546913836537215],[-116.55988264811849,43.546917656145389]]]},"properties":{"FID":16,"OBJECTID":5719,"UNIQID":"PKMA215","OWNER":"Nampa","MANAGER":"Nampa","STATUS":"Active","CLASS":"Community","LOCTNTYP":"Park","FTRNAME":"Skyview Park"}},{"type":"Feature","id":17,"geometry":{"type":"Polygon","coordinates":[[[-116.56774044761757,43.544296996234053],[-116.56774057850208,43.544285075033187],[-116.56763014668753,43.544283170803268],[-116.56749221274181,43.544282073402641],[-116.56746766354647,43.544282545976785],[-116.56745135147584,43.544286831057924],[-116.56743713293788,43.544294672836905],[-116.56741886406186,43.544305520264054],[-116.56739853536347,43.544315489498032],[-116.56737896945306,43.544321285727861],[-116.56735365869355,43.544325932169436],[-116.56732872004174,43.544327896293488],[-116.56729433420145,43.544327249196144],[-116.56725988608515,43.544321351244349],[-116.5672348247315,43.544314874016891],[-116.56720479546924,43.544303478043979],[-116.5671862478594,43.54429378673003],[-116.56716849121,43.544282005986041],[-116.56715232606322,43.544266939234184],[-116.56713694383146,43.544249187232424],[-116.56712399756206,43.544229929022755],[-116.56711846804687,43.544214488311077],[-116.56711206037342,43.544194589289212],[-116.56711023845466,43.544180907912803],[-116.5671114372637,43.544166597367067],[-116.5671139052819,43.544149326262563],[-116.56712024280336,43.544133800734755],[-116.5671286401268,43.544119153401851],[-116.5671386490469,43.54410270871518],[-116.56714749086635,43.544090737855733],[-116.56715263313355,43.544077602581723],[-116.56715458364356,43.544064893373495],[-116.56715656797516,43.543839779428673],[-116.56716012336004,43.543436456030541],[-116.56716445164901,43.542902191362344],[-116.56717310462587,43.542883673487147],[-116.56718430452558,43.542864540628031],[-116.56718736125144,43.542848443565177],[-116.56718708782572,43.542828201857134],[-116.56710183644549,43.542771080288851],[-116.5661330945686,43.542766687110039],[-116.56605166694352,43.542767566294756],[-116.56600505664954,43.542770875673135],[-116.56595890932677,43.542778052237473],[-116.5659087092085,43.542788234397896],[-116.56586101725792,43.542802268246589],[-116.56581053602193,43.542821979223156],[-116.56576214937564,43.542845246901699],[-116.56572032243292,43.542869360674281],[-116.56563727063775,43.542931874157375],[-116.56562312842988,43.542945371511856],[-116.56561794177728,43.542955232405781],[-116.56561770881518,43.542968332590426],[-116.56561840329601,43.542989464215772],[-116.56561578655732,43.543007939810963],[-116.56560944074138,43.543022870339499],[-116.56560063487989,43.543037519578071],[-116.56559018809153,43.543051884383026],[-116.56557686091324,43.543065077978113],[-116.5655643154544,43.543075586342781],[-116.56555008765487,43.543085767362342],[-116.56553063558783,43.543096963174925],[-116.56550942299042,43.543105427981445],[-116.56548624526805,43.543113057989423],[-116.56545662782702,43.54311920102343],[-116.56543397423353,43.543121467977706],[-116.56540902120874,43.54312224182906],[-116.56539099612317,43.543120881590568],[-116.56537396028664,43.543119195652153],[-116.56534276351607,43.543112273000759],[-116.56531327928205,43.543101674646337],[-116.5650957830107,43.543335058168239],[-116.56503060205337,43.543288561881852],[-116.56498249197926,43.543254243086686],[-116.56489326770216,43.543210639168827],[-116.56467400887195,43.543103144329251],[-116.56431521691206,43.542926855016603],[-116.56410583265473,43.542782250673916],[-116.56397237682749,43.542674486404692],[-116.56382263927391,43.542758375882123],[-116.56292291145395,43.541831104666485],[-116.56277298061202,43.541830285795278],[-116.5627701448869,43.542110493062694],[-116.56316040995088,43.542313999020259],[-116.56351081421391,43.54277859929941],[-116.56350044331657,43.542778673094119],[-116.56349921999124,43.542964772281003],[-116.56357460875128,43.543082080227741],[-116.56359156605861,43.543106086328713],[-116.56360648910024,43.54312438935186],[-116.56362646521036,43.543145874335529],[-116.56365090793942,43.543168614696818],[-116.56367335836164,43.543186839836451],[-116.56369765532956,43.543204260625274],[-116.56372477174166,43.543221358901789],[-116.56374935500241,43.543235039450245],[-116.56377203624368,43.543246318514207],[-116.5637979708975,43.543257800345231],[-116.56382600595163,43.543268675841162],[-116.56385426364098,43.54327816356308],[-116.56388319455166,43.543286460129437],[-116.56390700885248,43.543292279083538],[-116.56393169353638,43.543297397844917],[-116.56395540267967,43.54330147040784],[-116.56398459893005,43.543305390484228],[-116.56401468848505,43.54330819884747],[-116.56404055484107,43.543309633988564],[-116.56408738604715,43.543311299692277],[-116.56411926493591,43.543313742440347],[-116.56415535041704,43.543317978863186],[-116.56418739510691,43.54332308656209],[-116.56422389714334,43.543330506415693],[-116.56425378751953,43.543337913038876],[-116.56428859622785,43.543348140699393],[-116.56432312775274,43.543360113852799],[-116.56436023294532,43.543375200175127],[-116.56438818215172,43.543388235528226],[-116.56441571856168,43.54340213432814],[-116.56444498319138,43.543417837248704],[-116.56447014450076,43.543432156208091],[-116.56449452941476,43.543446802035341],[-116.56451614031322,43.543460455887612],[-116.56454044920891,43.543476622546414],[-116.56456278262303,43.54349228660702],[-116.56458391226934,43.543507875529045],[-116.56461418010301,43.543531632717659],[-116.56463665782276,43.543550474953271],[-116.5646610129057,43.543572179684915],[-116.56468298581586,43.543593045373861],[-116.5647021926667,43.543612407769366],[-116.56471988327353,43.543631279600788],[-116.56473670415392,43.543650255740211],[-116.56475473862884,43.543671872276548],[-116.56477195452007,43.543693623360639],[-116.56478922087265,43.543715537003791],[-116.56480860481906,43.543740141307794],[-116.56510787321841,43.544122428736941],[-116.56512235249032,43.544143101133074],[-116.5651366339343,43.544164335711429],[-116.56515360534688,43.544190788896266],[-116.56516978322104,43.544217398956363],[-116.56518459418579,43.544243123142877],[-116.56520058162107,43.544272587030754],[-116.56521220252331,43.544295281659053],[-116.56522391220322,43.544319421242818],[-116.56523526449095,43.544343576875534],[-116.56524512174117,43.544364042782],[-116.56525671700915,43.544387495487662],[-116.56526714222564,43.544408050954267],[-116.56527720779169,43.544427445131753],[-116.56528917281194,43.544449959974379],[-116.56530247220113,43.544474341146099],[-116.56531605562594,43.544498587073079],[-116.56533095935227,43.544524481600213],[-116.56534788391151,43.544553044965475],[-116.56536513859589,43.544581311635085],[-116.5653814265599,43.544607261091542],[-116.56539912675808,43.544634701870336],[-116.56541475844635,43.544658321996145],[-116.56543290336886,43.544685062006032],[-116.56549362634682,43.544771573995511],[-116.56552538775141,43.544816825904888],[-116.56577770986866,43.544818405693128],[-116.56605024151833,43.544820232225142],[-116.5661606727807,43.544898151156161],[-116.56628400101583,43.544953513650484],[-116.56658205371411,43.545046778810409],[-116.56681438343482,43.545118927039162],[-116.56710788947872,43.545205272596398],[-116.56773068627393,43.545388489811508],[-116.56773226292663,43.545248719014012],[-116.5677341185758,43.545084274882633],[-116.56773751178861,43.544652125533787],[-116.56774044761757,43.544296996234053]]]},"properties":{"FID":17,"OBJECTID":5720,"UNIQID":"PKMA216","OWNER":"Nampa","MANAGER":"Nampa","STATUS":"Active","CLASS":"Neighborhood","LOCTNTYP":"Park","FTRNAME":"Wilson Creek Park"}},{"type":"Feature","id":18,"geometry":{"type":"Polygon","coordinates":[[[-116.56664657512975,43.554278412770543],[-116.56715273885699,43.554280828618047],[-116.56715495075987,43.553100709404923],[-116.56716688596605,43.553084932360086],[-116.56718042582746,43.553069116840696],[-116.56718511540168,43.553052650788047],[-116.5671815884875,43.553009807935112],[-116.5671695214438,43.552989174398867],[-116.56714965427622,43.552972883869757],[-116.56712987398612,43.552963022250616],[-116.56710326649167,43.552956782887023],[-116.56707670725469,43.552954114835877],[-116.56704921370425,43.552955025119338],[-116.56702964577927,43.552960880705072],[-116.56700620673658,43.55297105120809],[-116.56697776922698,43.552974826991175],[-116.56673019090536,43.552973023366931],[-116.56668887882553,43.552969031231825],[-116.56665146561573,43.552962868953436],[-116.56661400540177,43.552953133534714],[-116.56657945185006,43.552940520371948],[-116.56654288741088,43.552924348097115],[-116.56651121407161,43.552906713293282],[-116.56648343118168,43.552886191925055],[-116.56645660070649,43.55286352057017],[-116.56642970396787,43.552835847732773],[-116.56640663020089,43.552800289568843],[-116.5663914228907,43.5527653890192],[-116.5663830633716,43.552728296390249],[-116.56637718516777,43.55251113926284],[-116.56637430057177,43.552224658047336],[-116.56637906745395,43.552213907215787],[-116.56639063257592,43.552197391195918],[-116.56639530178239,43.552179496832956],[-116.56638707735475,43.55215240533537],[-116.56636799070887,43.552121105044549],[-116.56634405041204,43.552094125764938],[-116.56631120215813,43.552062209935436],[-116.56627053455971,43.552033206896795],[-116.56622903995734,43.552015641233481],[-116.56617577653097,43.551999588959305],[-116.56611469498917,43.551986449441351],[-116.56608814462498,43.551984495789235],[-116.56607441315043,43.551986023192981],[-116.56605878403761,43.551992564290252],[-116.56604512844081,43.551999806891637],[-116.56602847946154,43.552003498293153],[-116.56601180031558,43.552005045828935],[-116.56548522112703,43.55200165889385],[-116.56477591546108,43.551997427851376],[-116.56476116288638,43.551996103602946],[-116.56474343380061,43.551992658286316],[-116.5647177613882,43.551982838237578],[-116.56470197815693,43.551977949662003],[-116.56468426832097,43.551975932684662],[-116.56463120864086,43.551974881388581],[-116.5645810749014,43.551972380734668],[-116.5645269845747,43.551967765069371],[-116.5644246294213,43.551953490212753],[-116.56432615519131,43.551935615957014],[-116.56415775825525,43.551904664018323],[-116.56414397865728,43.551902618968498],[-116.56413122844904,43.551904138250869],[-116.56411166057261,43.551909993337794],[-116.56409892960143,43.551912941865403],[-116.56408716195202,43.551914455046344],[-116.5640734767272,43.551913812598443],[-116.56400353655383,43.551905047491069],[-116.56392389783663,43.551899898749532],[-116.56376966653744,43.551899568182279],[-116.56302990327112,43.551894828403832],[-116.56299951173544,43.551899330886563],[-116.56297410854826,43.551909514532355],[-116.56295793972178,43.551930432112549],[-116.5629666473876,43.552452161707642],[-116.56298560980039,43.552600007888927],[-116.56302191343921,43.552705033698288],[-116.56305778509135,43.552777826680142],[-116.56308381911919,43.55282033677387],[-116.56313283480853,43.552888748993006],[-116.56317880622849,43.552941064450913],[-116.56324188010909,43.553003032603911],[-116.56331338671468,43.553060823596788],[-116.56341020113051,43.553125956762372],[-116.56353583824895,43.553206892425493],[-116.56403658994043,43.553530677980973],[-116.56409835194233,43.55357617025669],[-116.56414698035643,43.553615776551915],[-116.56418600512103,43.55365108025336],[-116.56422054198254,43.553685900137005],[-116.56426074610222,43.55373019748054],[-116.56429814103612,43.553775885696147],[-116.56433178257431,43.553822972412135],[-116.56436166839543,43.553871285726082],[-116.56438424933468,43.553911937967442],[-116.56440825651352,43.553963836003341],[-116.56443065565817,43.554021861781834],[-116.56444644183495,43.554073704958277],[-116.56445846321506,43.55412591969732],[-116.56446670265311,43.554170617499878],[-116.56447059451683,43.554216434515311],[-116.56447169212986,43.55426797277574],[-116.56512730885534,43.554271124001929],[-116.56587356351443,43.554274706614677],[-116.56664657512975,43.554278412770543]]]},"properties":{"FID":18,"OBJECTID":5721,"UNIQID":"PKMA217","OWNER":"Nampa","MANAGER":"Nampa","STATUS":"Active","CLASS":"Community","LOCTNTYP":"Park","FTRNAME":"Liberty Park"}},{"type":"Feature","id":19,"geometry":{"type":"Polygon","coordinates":[[[-116.58623930652287,43.554937960431218],[-116.58628847662123,43.554894255662333],[-116.58631487143278,43.554861197534969],[-116.58633597384657,43.554824367025141],[-116.58634790868308,43.554787603577282],[-116.58635381210217,43.554740881258844],[-116.58635407883362,43.554476049780384],[-116.58634542239061,43.554464209068136],[-116.58633086901924,43.554455262162129],[-116.58619438419318,43.554451289175574],[-116.58578451647432,43.554451460821866],[-116.58556501396723,43.554451652122253],[-116.58527168537638,43.554450970123774],[-116.58506211571658,43.554448261522118],[-116.58506478104654,43.554584719496951],[-116.58507004868602,43.554854412580553],[-116.58507650909978,43.555185199531238],[-116.58589233546624,43.555188840830311],[-116.58606198588274,43.555064072843038],[-116.58623930652287,43.554937960431218]]]},"properties":{"FID":19,"OBJECTID":5722,"UNIQID":"PKMA218","OWNER":"Nampa","MANAGER":"Nampa","STATUS":"Active","CLASS":"Neighborhood","LOCTNTYP":"Park","FTRNAME":"Mary Ellen Meadows Park"}},{"type":"Feature","id":20,"geometry":{"type":"Polygon","coordinates":[[[-116.59964553431563,43.553783235644765],[-116.59964765967986,43.554270202549979],[-116.59964780985266,43.554297627075123],[-116.60275283799206,43.554292367034272],[-116.60275218164989,43.554263376487256],[-116.60274486159368,43.553902257655558],[-116.60273668613506,43.553498899122701],[-116.60201935461079,43.553499859298618],[-116.60115047587496,43.553500944214576],[-116.60021853274664,43.553502100893688],[-116.59964442219623,43.553502713656968],[-116.59964553431563,43.553783235644765]]]},"properties":{"FID":20,"OBJECTID":5723,"UNIQID":"PKMA219","OWNER":"Nampa","MANAGER":"Nampa","STATUS":"Active","CLASS":"Neighborhood","LOCTNTYP":"Park","FTRNAME":"South Fork Park"}},{"type":"Feature","id":21,"geometry":{"type":"Polygon","coordinates":[[[-116.60399077135106,43.56839170042204],[-116.60399283889657,43.568623543535068],[-116.60528034141825,43.56861582320434],[-116.60530712927336,43.568610859389636],[-116.60533124403105,43.56860210538585],[-116.60536424406376,43.5685732798648],[-116.60537309687534,43.568550826893272],[-116.60535743086317,43.567781653569739],[-116.60534355160577,43.567781755613062],[-116.60481077162713,43.567785067274691],[-116.60438408240846,43.567787717752857],[-116.60398627725677,43.567790186882704],[-116.60398788915404,43.568068464906275],[-116.60399077135106,43.56839170042204]],[[-116.60415664172534,43.568031124927266],[-116.60454767435873,43.568028202663726],[-116.60455274727489,43.568302078440738],[-116.60416051844487,43.568305450716203],[-116.60415664172534,43.568031124927266]]]},"properties":{"FID":21,"OBJECTID":6103,"UNIQID":"PKMA220","OWNER":"Nampa","MANAGER":"Nampa","STATUS":"Active","CLASS":"Neighborhood","LOCTNTYP":"Park","FTRNAME":"West Roosevelt Park"}},{"type":"Feature","id":22,"geometry":{"type":"Polygon","coordinates":[[[-116.58973217793289,43.573830249688342],[-116.58971838507199,43.573784550534853],[-116.58970761547859,43.573689578571638],[-116.58970430839116,43.573660422088139],[-116.5896582692822,43.573553113885161],[-116.58958887329304,43.573462172039207],[-116.58951715998161,43.573393156826789],[-116.58943918944482,43.573345145754537],[-116.58933502843408,43.573298280139035],[-116.58932654916784,43.573295068680032],[-116.58932292319909,43.573292498473961],[-116.58924099662634,43.573242109406429],[-116.58914693118881,43.573193757227827],[-116.58906721390204,43.573159534057254],[-116.58896387186927,43.573122569639267],[-116.58886063713112,43.573093147290869],[-116.58796354374624,43.573097153874386],[-116.5879585109703,43.572462058974786],[-116.58795815705037,43.572436534348583],[-116.58757762818094,43.572437417385068],[-116.58729985542293,43.572437070448252],[-116.58699916905296,43.572437843819507],[-116.58673056650258,43.572437428359805],[-116.58645936435792,43.572438459769636],[-116.58620846718398,43.572439342916887],[-116.58596214976116,43.572439715864576],[-116.58566670448745,43.572440446505674],[-116.58533194861489,43.572440987466457],[-116.58485243391716,43.572443061722517],[-116.58463167042085,43.572443721348876],[-116.58424056652846,43.572443718160642],[-116.58405713343998,43.572443627199782],[-116.5838199939581,43.572444404731534],[-116.5835559764043,43.572443948370555],[-116.58298222757857,43.572444809793893],[-116.58298233362437,43.572466874406302],[-116.58298209478059,43.573145453755387],[-116.5829823042865,43.574154739513297],[-116.58313105644663,43.574153760874708],[-116.58332016988169,43.574156542856052],[-116.58347259376207,43.574155900654567],[-116.58362643339544,43.574160781823068],[-116.58375672031151,43.574167890417854],[-116.58398648959844,43.574205994967599],[-116.58401412199271,43.574225856009114],[-116.58408869289815,43.574297330031186],[-116.58413975731065,43.574374463510601],[-116.58416908687136,43.574449010215311],[-116.58416792811711,43.574501660895763],[-116.58415407428016,43.57459161398949],[-116.58417859782529,43.574591092105912],[-116.58430031779881,43.574592775500143],[-116.58439663981189,43.574599617265299],[-116.58450682041757,43.57461361810067],[-116.58458665156834,43.574627895302527],[-116.58467939939506,43.574649166534314],[-116.58474758705881,43.574668216423873],[-116.58483572857872,43.574697579876521],[-116.58492110063146,43.574731421748119],[-116.58500370221947,43.574769400008996],[-116.58510267431819,43.574818995202826],[-116.58537678577835,43.574956351652055],[-116.58598633941402,43.575246774726182],[-116.58627304461577,43.575382422116142],[-116.58635780174373,43.575425109218635],[-116.58643985073097,43.575472224826193],[-116.5865274343036,43.575529198419787],[-116.58658938701271,43.575574870468799],[-116.58665796657903,43.575631584278661],[-116.58670206561918,43.575672813451618],[-116.5867700145491,43.575742621252751],[-116.58681050899953,43.575790504299007],[-116.58685834440918,43.57585343028903],[-116.58688862822989,43.575899768747064],[-116.58750508433826,43.575900728799098],[-116.58798827406999,43.575900999055165],[-116.58866695906531,43.575898165359924],[-116.58866705080851,43.575866239478501],[-116.58866511136382,43.57565710074163],[-116.58866132462998,43.575181765298716],[-116.58896706830191,43.575180353655675],[-116.58935468477654,43.575178563335875],[-116.58927431695311,43.575006063419707],[-116.58917576706021,43.57479475081179],[-116.58926315804618,43.574747799361354],[-116.58935448626967,43.574688841130218],[-116.58943382842146,43.574627899676656],[-116.5894863970924,43.574580470148938],[-116.58954365613965,43.57452043877128],[-116.5896047833803,43.574443256101617],[-116.58965515782513,43.574364632983723],[-116.58969688914853,43.574277709474927],[-116.58972594876603,43.574196561443074],[-116.58974201751417,43.574124410047439],[-116.58975217344528,43.574047187638001],[-116.58975324619723,43.573988520275051],[-116.58974748163871,43.573913130423826],[-116.58973217793289,43.573830249688342]]]},"properties":{"FID":22,"OBJECTID":6104,"UNIQID":"PKMA221","OWNER":"Nampa","MANAGER":"Nampa","STATUS":"Active","CLASS":"Community","LOCTNTYP":"Park","FTRNAME":"West Park"}},{"type":"Feature","id":23,"geometry":{"type":"Polygon","coordinates":[[[-116.63722362083016,43.579427006500872],[-116.63588414098837,43.579443296281042],[-116.63292220338538,43.579479260375777],[-116.63291997846234,43.580222815865483],[-116.63291888266464,43.58062059812454],[-116.63291723592668,43.581236715697685],[-116.63291702868662,43.58130531030622],[-116.6331112918317,43.581435000165072],[-116.63319348899893,43.58148987504832],[-116.63357638104853,43.58213522074999],[-116.63414730562405,43.583097458783058],[-116.63535496364788,43.583082589231466],[-116.63718719804871,43.583060004557247],[-116.63881253111434,43.583039678914353],[-116.63923966905341,43.583034233813549],[-116.6392250930833,43.582400749817175],[-116.63651013865645,43.58241993112194],[-116.63649412239171,43.581507099236994],[-116.63726980985106,43.581501428030563],[-116.63722362083016,43.579427006500872]]]},"properties":{"FID":23,"OBJECTID":6105,"UNIQID":"PKMA222","OWNER":"Nampa","MANAGER":"Nampa","STATUS":"Active","CLASS":"Large Urban","LOCTNTYP":"Park","FTRNAME":"Midway Sports Park"}},{"type":"Feature","id":24,"geometry":{"type":"MultiPolygon","coordinates":[[[[-116.58763819969077,43.586798857286716],[-116.58766601199797,43.586796271802484],[-116.58768884518092,43.58678896030775],[-116.5877115106592,43.586770539062954],[-116.5882698359336,43.586158353635163],[-116.5883504134236,43.586062501261374],[-116.58841318780701,43.585982258614898],[-116.58845973119773,43.585912852605496],[-116.58849465916265,43.585832814145078],[-116.58851982468691,43.585757610669859],[-116.58853516417139,43.585682479262893],[-116.58855005611709,43.585575200952647],[-116.58855050411678,43.585489461143808],[-116.588541702212,43.585445467047535],[-116.5885231227367,43.58540511721111],[-116.58849643558051,43.585370780176753],[-116.58846164199974,43.585342456829764],[-116.58826502259879,43.585221249540858],[-116.58814781765135,43.585156615886277],[-116.58808681662018,43.585128484564386],[-116.58804729089206,43.585113294205513],[-116.58800618898026,43.585103020995184],[-116.58791848981866,43.585103455905326],[-116.58777465770174,43.585104169808687],[-116.58738751295013,43.585106088179359],[-116.58672379916885,43.585109374549731],[-116.58631383212371,43.58511140231527],[-116.58631701010373,43.585394608180152],[-116.58631951926036,43.585676010599961],[-116.58632202557116,43.585941373940329],[-116.58632526572582,43.586246857967957],[-116.58632939360068,43.586616721352641],[-116.58631942737739,43.586806654753175],[-116.58677329835876,43.586802809621901],[-116.58763819969077,43.586798857286716]]],[[[-116.58309577386113,43.586937646841697],[-116.58310062960382,43.587420065728978],[-116.58310464196431,43.587795182161841],[-116.58310803975392,43.588172421010654],[-116.58311012936713,43.588337024413185],[-116.58311140785796,43.58850162562112],[-116.58311386246169,43.588748528912468],[-116.58311951432779,43.589326691155051],[-116.58340837457075,43.589197868037687],[-116.58366445360184,43.589084679647932],[-116.58397883356137,43.588945522929343],[-116.58433688153019,43.588786593447971],[-116.58433511029857,43.588726591469168],[-116.58488142091848,43.588482671200964],[-116.58533402358559,43.588280545658677],[-116.58577466702857,43.588083689493139],[-116.58626017413852,43.587866768510892],[-116.58667877555833,43.587679738183816],[-116.58714755849934,43.587466806300448],[-116.58729928612024,43.587384931730156],[-116.58744241975616,43.587295576980758],[-116.5875442755042,43.587223840816698],[-116.58764042023041,43.587148375841053],[-116.58773085130781,43.587069349508077],[-116.5878258118474,43.586976573110817],[-116.58788712834708,43.586912877394163],[-116.58333494407087,43.586933904501329],[-116.58309577386113,43.586937646841697]]]]},"properties":{"FID":24,"OBJECTID":6106,"UNIQID":"PKMA223","OWNER":"Nampa","MANAGER":"Nampa","STATUS":"Active","CLASS":"Community","LOCTNTYP":"Park","FTRNAME":"Lions Park"}},{"type":"Feature","id":25,"geometry":{"type":"Polygon","coordinates":[[[-116.56640054922542,43.591228042187964],[-116.56634142193683,43.591272276424711],[-116.56687146703959,43.591643013707468],[-116.56689108306573,43.591651143756366],[-116.56690736870797,43.591653390173136],[-116.56692524701903,43.59165326241537],[-116.56694309460954,43.591650772083455],[-116.56696250289286,43.591643544113523],[-116.56761693720259,43.591146561479682],[-116.56757675934016,43.591119154216045],[-116.56702624734965,43.590743623037781],[-116.56640054922542,43.591228042187964]]]},"properties":{"FID":25,"OBJECTID":6108,"UNIQID":"PKMA225","OWNER":"Nampa","MANAGER":"Nampa","STATUS":"Active","CLASS":"Neighborhood","LOCTNTYP":"Park","FTRNAME":"City Acres Park"}},{"type":"Feature","id":26,"geometry":{"type":"Polygon","coordinates":[[[-116.52943818612339,43.568683358164705],[-116.52943696776204,43.568566128316625],[-116.52943428152102,43.568307517532354],[-116.529519168642,43.568306767736459],[-116.52953667982929,43.568295788448665],[-116.52950179458318,43.568257444691199],[-116.5294842085622,43.568227200122806],[-116.52946453838078,43.568187681475997],[-116.52945783926795,43.568163434850149],[-116.52945756289112,43.568142003198737],[-116.52945399610311,43.567827304136941],[-116.52945180015173,43.567809457227924],[-116.52944574451546,43.567796995918151],[-116.5294352247396,43.567781348932975],[-116.52942429771207,43.567772135144502],[-116.52940797565276,43.56776367282729],[-116.52939562507856,43.567758398643008],[-116.52938409161003,43.567755434882692],[-116.52937178889808,43.567752432259667],[-116.52936422999628,43.567751455858975],[-116.52935573669674,43.567751169014905],[-116.52866741401715,43.567751342527721],[-116.52865056862491,43.567751543672742],[-116.52864302835745,43.567752108994348],[-116.5286317363865,43.56775424356465],[-116.52862046332183,43.567757749780284],[-116.52860914097241,43.567764829786817],[-116.52857873465595,43.567796873032862],[-116.5285478419452,43.567815087516635],[-116.5285093547102,43.567829753248816],[-116.52848490444386,43.567835405945637],[-116.52845288247761,43.567839569197879],[-116.52841704182372,43.567839813238422],[-116.52838114031023,43.567835427490756],[-116.52834706657407,43.567826571018465],[-116.52833380108724,43.567821860119615],[-116.52831577293415,43.567813752205545],[-116.52830628028144,43.567809015617961],[-116.52829011454457,43.567798838257943],[-116.52827772550876,43.567789320172665],[-116.52827104481047,43.567783191763915],[-116.52826244901811,43.567774848607343],[-116.52825384411229,43.56776598974627],[-116.52824614958112,43.567754382036952],[-116.52824231275305,43.567749436820733],[-116.5279234790833,43.567749378105695],[-116.52792375710176,43.567770979873231],[-116.5275896475961,43.567772758693181],[-116.527597775288,43.568691856639262],[-116.52767257483784,43.568759881690909],[-116.52936389295971,43.568781958269426],[-116.52948295315966,43.568699175798358],[-116.52946243502748,43.568684534008327],[-116.52943818612339,43.568683358164705]]]},"properties":{"FID":26,"OBJECTID":6503,"UNIQID":"PKMA228","OWNER":"Nampa","MANAGER":"Nampa","STATUS":"Active","CLASS":"Neighborhood","LOCTNTYP":"Park","FTRNAME":"Kings Road Park"}},{"type":"Feature","id":27,"geometry":{"type":"Polygon","coordinates":[[[-116.62288798312305,43.58634076540114],[-116.62300797966685,43.586417183029312],[-116.62301077059378,43.583150114411403],[-116.62035929473291,43.583160577462166],[-116.62028883969009,43.583160751999593],[-116.62028947703806,43.583270486941572],[-116.62029046506782,43.583339069715414],[-116.62052833430657,43.583673343126172],[-116.62063373465712,43.583850527594265],[-116.62063855932362,43.583858035584022],[-116.62064338400299,43.583865372552324],[-116.62064820619437,43.583872708639277],[-116.62065302838556,43.583879872804701],[-116.62065879032581,43.583887031612988],[-116.62066361377049,43.583894196668545],[-116.62066937693849,43.583901354566805],[-116.62067513888132,43.583908341452947],[-116.62068089958593,43.583915156426912],[-116.62068760247763,43.583921963324528],[-116.62069336070876,43.583928778316718],[-116.62070006362779,43.583935415092299],[-116.62070676158292,43.583942051005167],[-116.62071345955098,43.583948515896402],[-116.6207201575334,43.583954981687221],[-116.62072685303951,43.583961275575227],[-116.62073449197156,43.583967561376909],[-116.62074212967842,43.583973676166266],[-116.62074882023317,43.583979626248144],[-116.62075645671788,43.583985741945909],[-116.62076503043521,43.583991505761652],[-116.62077266321829,43.583997278544139],[-116.62078029227379,43.584002878533056],[-116.62078886353081,43.584008471344575],[-116.62079743480055,43.584013893134198],[-116.6208050601703,43.584019323028471],[-116.620813628965,43.584024572914444],[-116.62082313749644,43.584029644620159],[-116.62083170259093,43.584034723511763],[-116.62084026520876,43.584039630500328],[-116.62084976756339,43.584044359308464],[-116.62085832898286,43.584049097083842],[-116.62086783256353,43.584053653059705],[-116.62087732874092,43.584058038970134],[-116.62088682617072,43.584062425770341],[-116.62089632481201,43.58406663883904],[-116.62090581730091,43.584070682732872],[-116.62091625198998,43.584074547526647],[-116.62092574321521,43.584078417706998],[-116.62093807837661,43.584083124926245],[-116.62134970978593,43.584231054759009],[-116.6213667807788,43.584237098504545],[-116.62137817008853,43.584241812885622],[-116.6213905102644,43.584246862960065],[-116.6214028479661,43.584251913052043],[-116.62141519060341,43.584257305147332],[-116.62143324091693,43.584265742014757],[-116.62144464507375,43.584271313182001],[-116.62145605169958,43.584277055350441],[-116.62146745835723,43.584282971238977],[-116.62147886869626,43.584289056319214],[-116.62148933559509,43.584295148590463],[-116.62150074721949,43.584301408280297],[-116.62151122278414,43.584307843425883],[-116.62152169465352,43.584314451420042],[-116.62153217146856,43.584321230396682],[-116.62154170608109,43.584328016555496],[-116.62155218536789,43.58433496653258],[-116.62156172121793,43.584342095622659],[-116.62157126078455,43.584349224683613],[-116.62157984330963,43.584355504134408],[-116.62159034486322,43.584363996728989],[-116.62159894597076,43.584371649606474],[-116.62160849294848,43.584379291671219],[-116.62161709774006,43.584387113740163],[-116.62162570375895,43.584394934898995],[-116.62163336760428,43.584402936962313],[-116.62164197609923,43.584411101043443],[-116.62164964240324,43.584419273207928],[-116.62165731242796,43.584427617264787],[-116.62166497996557,43.58443596043999],[-116.62167265123696,43.58444447640754],[-116.62168032495208,43.584453161576853],[-116.62168705526338,43.584461856639493],[-116.62169378556368,43.584470550801683],[-116.62170051832054,43.584479415065772],[-116.62170630764696,43.584488287423433],[-116.62171304292728,43.58449732628911],[-116.62171883840479,43.584506538841232],[-116.62172463268494,43.584515754102554],[-116.62221761600345,43.585331113959271],[-116.62288798312305,43.58634076540114]]]},"properties":{"FID":27,"OBJECTID":8957,"UNIQID":"PKMA257","OWNER":"Nampa","MANAGER":"Nampa","STATUS":"Active","CLASS":"Community","LOCTNTYP":"Park","FTRNAME":"Huckleberry Dog Park"}},{"type":"Feature","id":28,"geometry":{"type":"Polygon","coordinates":[[[-116.54533441069958,43.553987201935833],[-116.54495672931854,43.553394444574991],[-116.54467312603005,43.553513250520545],[-116.54455187653357,43.553815537925303],[-116.54533441069958,43.553987201935833]]]},"properties":{"FID":28,"OBJECTID":12159,"UNIQID":"PKMA283","OWNER":"Nampa","MANAGER":"Nampa","STATUS":"Active","CLASS":" ","LOCTNTYP":"Park","FTRNAME":"Port Meadows Park"}}]}